REGION,SPDES ID,SIZE,FACILITY NAME,ADDRESS,FACILITY CITY,ZIP,COUNTY,CNMP ACRES,full address,latitude,longitude
2,NYA00E164,MEDIUM,AQUEDUCT RACETRACK,110-00 ROCKAWAY BLVD.,JAMAICA,11417,QUEENS,0,"110-00 ROCKAWAY BLVD., JAMAICA, New York, 11417",40.6728572,-73.832624
3,NYA00E165,MEDIUM,"COON BROTHERS FARM, LLC.",407 SEPARATE ROAD,AMENIA,12501,DUTCHESS,2132,"407 SEPARATE ROAD, AMENIA, New York, 12501",41.8845414,-73.6002201
3,NYA00E167,LARGE,HAROLD BREY & SONS INC,607 SWISS HILL ROAD,JEFFERSONVILLE,12748,SULLIVAN,149,"607 SWISS HILL ROAD, JEFFERSONVILLE, New York, 12748",41.7330168,-74.9251701
3,NYA00E168,LARGE,"HVFG, LLC",80 BROOKS ROAD,FERNDALE,12734,SULLIVAN,2000,"80 BROOKS ROAD, FERNDALE, New York, 12734",41.754751,-74.744475
3,NYA00E072,MEDIUM,"MONTICELLO RACEWAY MNGT., INC",240 STATE ROUTE 17B,MONTICELLO,12701,SULLIVAN,0,"240 STATE ROUTE 17B, MONTICELLO, New York, 12701",41.665877,-74.7196299
3,NYA00E171,LARGE,LABELLE FARM INC,504 STANTON CORNER ROAD,FERNDALE,12734,SULLIVAN,250,"504 STANTON CORNER ROAD, FERNDALE, New York, 12734",41.7444425,-74.741045
3,NYA00E173,LARGE,BELLA POULTRY INC.,PO. BOX 555  29 FRASER ROAD,FERNDALE,12734,SULLIVAN,0,"PO. BOX 555  29 FRASER ROAD, FERNDALE, New York, 12734",41.7110786,-74.7642885
3,NYA00E170,LARGE,HITS-ON-THE-HUDSON,454 WASHINGTON AVENUE,SAUGERTIES,12477,ULSTER,0,"454 WASHINGTON AVENUE, SAUGERTIES, New York, 12477",42.0853071,-73.9517478
3,NYA00E172,MEDIUM,EMPIRE CITY CASINO AT YONKERS RACEWAY,810 YONKERS AVENUE,YONKERS,10704,WESTCHESTER,0,"810 YONKERS AVENUE, YONKERS, New York, 10704",40.9194178,-73.8647338
4,NYA00E102,LARGE,STANTON FARMS,7 BIERS ROAD,COEYMANS HOLLOW,12046,ALBANY,2157,"7 BIERS ROAD, COEYMANS HOLLOW, New York, 12046",42.505649,-73.8981029
4,NYA00E332,MEDIUM,"LO-NAN FARMS, LLC.","172 MT. ROSS ROAD, STOP #2",PINE PLAINS,12567,COLUMBIA,1884,"172 MT. ROSS ROAD, STOP #2, PINE PLAINS, New York, 12567",42.008278,-73.695781
4,NYA00E180,LARGE,"CTZK FARM 2, LLC",533 NORTH MOUNTAIN ROAD,COPAKE FALLS,12517,COLUMBIA,3700,"533 NORTH MOUNTAIN ROAD, COPAKE FALLS, New York, 12517",42.1442605,-73.5069656
4,NYA00E176,LARGE,WIL-ROC FARMS,2167 US ROUTE 9,KINDERHOOK,12106,COLUMBIA,2560,"2167 US ROUTE 9, KINDERHOOK, New York, 12106",42.385152,-73.731362
4,NYA00E177,LARGE,"DUTCH HOLLOW FARM,LLC.",101 RUNNING CREEK ROAD,SCHODACK LANDING,12156,COLUMBIA,2000,"101 RUNNING CREEK ROAD, SCHODACK LANDING, New York, 12156",42.4579075,-73.7251221
4,NYA00E178,MEDIUM,A. OOMS & SONS,243 ROUTE 28A,VALATIE,12184,COLUMBIA,1500,"243 ROUTE 28A, VALATIE, New York, 12184",41.970047,-74.0724626
4,NYA00E251,MEDIUM,MARICK FARM,12860 TURNPIKE ROAD,EAST MEREDITH,13757,DELAWARE,990,"12860 TURNPIKE ROAD, EAST MEREDITH, New York, 13757",42.4163857,-74.7995353
4,NYA00E253,MEDIUM,HAGER FARMS,8400 COUNTY HIGHWAY 33,BLOOMVILLE,13739,DELAWARE,1559,"8400 COUNTY HIGHWAY 33, BLOOMVILLE, New York, 13739",42.7646046,-74.788338
4,NYA00E181,MEDIUM,"CHARLES RIVER LAB, SUNRISE FARMS, INC.",105 CAUTERSKILL ROAD,CATSKILL,12414,GREENE,0,"105 CAUTERSKILL ROAD, CATSKILL, New York, 12414",42.2260254,-73.9732672
4,NYA00E103,MEDIUM,STONY BROOK FARMS,368 YOUNGS CORNER ROAD,AMSTERDAM,12010,MONTGOMERY,1242,"368 YOUNGS CORNER ROAD, AMSTERDAM, New York, 12010",42.876308,-74.253921
4,NYA00E385,LARGE,"MILK TRAIN, INC",247 FLAT CREEK ROAD,SPRAKERS,12166,MONTGOMERY,1952,"247 FLAT CREEK ROAD, SPRAKERS, New York, 12166",42.8522197,-74.475054
4,NYA00E070,MEDIUM,GOTTIER FARMS,176 MCGRAW ROAD,AMSTERDAM,12010,MONTGOMERY,802,"176 MCGRAW ROAD, AMSTERDAM, New York, 12010",42.9281169,-74.2578457
4,NYA00E387,MEDIUM,"ENVISION DAIRY, LLC.",568 LANGLEY ROAD,AMSTERDAM,12010,MONTGOMERY,968,"568 LANGLEY ROAD, AMSTERDAM, New York, 12010",42.889649,-74.1775056
4,NYA00E333,MEDIUM,"MMT CATTLE, INC.",1942 HICKORY HILL ROAD,FONDA,12068,MONTGOMERY,151,"1942 HICKORY HILL ROAD, FONDA, New York, 12068",42.94432,-74.441626
4,NYA00E506,MEDIUM,GLEN MEADOWS FARM,200 EGELSTON ROAD,FULTONVILLE,12072,MONTGOMERY,444,"200 EGELSTON ROAD, FULTONVILLE, New York, 12072",42.9070106,-74.3227558
4,NYA00E384,LARGE,"R & R Rarms LLC/DYKEMAN & SONS, INC.",143 INGERSOLL ROAD,FULTONVILLE,12072,MONTGOMERY,2258,"143 INGERSOLL ROAD, FULTONVILLE, New York, 12072",42.907176,-74.366042
4,NYA00E331,MEDIUM,"GLENVUE FARM, LLC",120 SCOTT ROAD,FULTONVILLE,12072,MONTGOMERY,686,"120 SCOTT ROAD, FULTONVILLE, New York, 12072",42.930752,-74.369808
4,NYA00E302,LARGE,"VEIT FARMS, LLC",7392 STATE HIGHWAY 5S,FORT PLAIN,13339,MONTGOMERY,1888,"7392 STATE HIGHWAY 5S, FORT PLAIN, New York, 13339",42.9723784,-74.6983244
4,NYA00E386,MEDIUM,CREEK ACRES FARM,6419 STATE HIGHWAY 30,AMSTERDAM,12010,MONTGOMERY,927,"6419 STATE HIGHWAY 30, AMSTERDAM, New York, 12010",42.8727582,-74.2104405
4,NYA00E372,MEDIUM,"HEMLOCK VALLEY FARM, LLC",3409 STATE HIGHWAY 28,MILFORD,13807,OTSEGO,2149,"3409 STATE HIGHWAY 28, MILFORD, New York, 13807",42.5668708,-74.9557657
4,NYA00E373,LARGE,SOUTHTOWN DAIRY,868 COUNTY ROAD 18,SOUTH NEW BERLIN,13843,OTSEGO,2557,"868 COUNTY ROAD 18, SOUTH NEW BERLIN, New York, 13843",42.4757783,-75.3927406
4,NYA00E254,MEDIUM,COBAR DAIRY,893 COUNTY HIGHWAY 1,MOUNT UPTON,13809,OTSEGO,1077,"893 COUNTY HIGHWAY 1, MOUNT UPTON, New York, 13809",42.3735534,-75.3949157
4,NYA00E477,MEDIUM,YOUNG DAIRY FARM LLC.,836 DIETSCHE RD,CHERRY VALLEY,13320,OTSEGO,555,"836 DIETSCHE RD, CHERRY VALLEY, New York, 13320",42.7894548,-74.753339
4,NYA00E250,MEDIUM,COOPERSTOWN HOLSTEIN CORPORATION,188 COUNTY HIGHWAY 33 W,COOPERSTOWN,13326,OTSEGO,1140,"188 COUNTY HIGHWAY 33 W, COOPERSTOWN, New York, 13326",42.6525863,-74.9501188
4,NYA00E179,MEDIUM,HERRINGTON FARMS INC,63 HERRINGTON LANE,TROY,12180,RENSSELAER,1825,"63 HERRINGTON LANE, TROY, New York, 12180",42.788021,-73.5400543
4,NYA00E443,MEDIUM,"COPSES FARM, LLC.",355 MASTER STREET,VALLEY FALLS,12185,RENSSELAER,1322,"355 MASTER STREET, VALLEY FALLS, New York, 12185",42.92016,-73.540858
4,NYA00E174,MEDIUM,"MAPLEDALE FARM PARTNERS, LLC.",103 GREENES BROOK ROAD,BERLIN,12022,RENSSELAER,760,"103 GREENES BROOK ROAD, BERLIN, New York, 12022",42.6621523,-73.3595637
4,NYA00E175,MEDIUM,WAGNER FARMS,79 GAIFIELD ROAD,POESTENKILL,12140,RENSSELAER,1050,"79 GAIFIELD ROAD, POESTENKILL, New York, 12140",42.702143,-73.588532
4,NYA00E101,MEDIUM,EVERGREEN FARMS,4 GREEN ROAD,PETERSBURG,12138,RENSSELAER,573,"4 GREEN ROAD, PETERSBURG, New York, 12138",42.834654,-73.312261
4,NYA00E275,MEDIUM,CDS TILLAPAUGH,226 CEMETARY ROAD,CARLISLE,12031,SCHOHARIE,1113,"226 CEMETARY ROAD, CARLISLE, New York, 12031",42.767159,-74.458872
4,NYA00E014,MEDIUM,ARGUS ACRES LLC,428 SCHOOLHOUSE ROAD,SHARON SPRINGS,13459,SCHOHARIE,1319,"428 SCHOOLHOUSE ROAD, SHARON SPRINGS, New York, 13459",42.7825914,-74.5109169
4,NYA00E303,MEDIUM,SUNY COBLESKILL CAMPUS FARM,105 ROCKLAND LANE,COBLESKILL,12043,SCHOHARIE,641,"105 ROCKLAND LANE, COBLESKILL, New York, 12043",42.6709841,-74.5032731
4,NYA00E058,MEDIUM,CROSSBROOK FARM,862 MILL VALLEY ROAD,MIDDLEBURGH,12122,SCHOHARIE,1098,"862 MILL VALLEY ROAD, MIDDLEBURGH, New York, 12122",42.620516,-74.394099
4,NYA00E006,MEDIUM,STANTON FAMILY FARM LLC,3271 ST. RT.145,SCHOHARIE,12157,SCHOHARIE,1334,"3271 ST. RT.145, SCHOHARIE, New York, 12157",42.6701302,-74.3835793
4,NYA00E274,MEDIUM,EUREKA FARM INC,264 GROVERNORS CORNERS RD.,COBLESKILL,12043,SCHOHARIE,1175,"264 GROVERNORS CORNERS RD., COBLESKILL, New York, 12043",42.70064,-74.450002
5,NYA00E487,LARGE,"ROVERS FARM, INC.",389 NORTH FARM ROAD,CHAZY,12921,CLINTON,3608,"389 NORTH FARM ROAD, CHAZY, New York, 12921",44.896555,-73.415977
5,NYA00E093,LARGE,REMILLARD FARMS,1127 FULLER STREET,PERU,12972,CLINTON,1525,"1127 FULLER STREET, PERU, New York, 12972",44.5933527,-73.4948035
5,NYA00E094,MEDIUM,ASHLINE DAIRY,812 SALMON RIVER ROAD,PLATTSBURGH,12901,CLINTON,1089,"812 SALMON RIVER ROAD, PLATTSBURGH, New York, 12901",44.6408562,-73.556366
5,NYA00E408,LARGE,"HIDDEN VIEW FARM, LLC",248 DUBOIS ROAD,CHAMPLAIN,12919,CLINTON,780,"248 DUBOIS ROAD, CHAMPLAIN, New York, 12919",44.990761,-73.479266
5,NYA00E109,MEDIUM,RUSTY CREEK FARM,782 STETSON ROAD,CHAZY,12921,CLINTON,1292,"782 STETSON ROAD, CHAZY, New York, 12921",44.9359626,-73.4188207
5,NYA00E510,MEDIUM,LAMBERTON FARMS,317 DAVIDSON ROAD,MOOERS FORKS,12959,CLINTON,995,"317 DAVIDSON ROAD, MOOERS FORKS, New York, 12959",44.9601141,-73.6708372
5,NYA00E488,LARGE,GONYO BROTHERS,983 LAVALLEY ROAD,MOOERS,12958,CLINTON,1403,"983 LAVALLEY ROAD, MOOERS, New York, 12958",44.9385318,-73.5293128
5,NYA00E478,MEDIUM,C.A.C.L. PROPERTIES LLC.,175 MCBRIDE ROAD,CHAZY,12921,CLINTON,34,"175 MCBRIDE ROAD, CHAZY, New York, 12921",44.912669,-73.4901616
5,NYA00E088,LARGE,ADIRONDACK FARMS,193 BROWN ROAD,PERU,12972,CLINTON,5790,"193 BROWN ROAD, PERU, New York, 12972",44.5438213,-73.5257017
5,NYA00E450,LARGE,GIROUX'S POULTRY FARM,8957 ROUTE 9,CHAZY,12921,CLINTON,7389,"8957 ROUTE 9, CHAZY, New York, 12921",44.8451905,-73.4257291
5,NYA00E500,MEDIUM,LEDUC'S GREEN ACRES,608 LEGGETT ROAD,CHAMPLAIN,12919,CLINTON,840,"608 LEGGETT ROAD, CHAMPLAIN, New York, 12919",44.9781679,-73.421647
5,NYA00E087,MEDIUM,MINER INSTITUTE,1034 Miner Farm Road,CHAZY,12921,CLINTON,999,"1034 Miner Farm Road, CHAZY, New York, 12921",44.8893575,-73.4746152
5,NYA00E091,MEDIUM,THREE L FARM,922 IRONA ROAD,ELLENBURG DEPOT,12935,CLINTON,793,"922 IRONA ROAD, ELLENBURG DEPOT, New York, 12935",44.902612,-73.73782
5,NYA00E106,MEDIUM,DIMOCK FARMS,510 PLEASANT STREET,PERU,12972,CLINTON,687,"510 PLEASANT STREET, PERU, New York, 12972",44.606572,-73.5418083
5,NYA00E090,LARGE,CARSADA DAIRY,3107 STATE ROUTE 11,MALONE,12953,FRANKLIN,3028,"3107 STATE ROUTE 11, MALONE, New York, 12953",44.8363506,-74.4034832
5,NYA00E504,MEDIUM,MONICA FARMS,93 PREMO ROAD,NORTH BANGOR,12966,FRANKLIN,1309,"93 PREMO ROAD, NORTH BANGOR, New York, 12966",44.8871639,-74.379495
5,NYA00E096,LARGE,PAPAS DAIRY,322 WHEELER ROAD,NORTH BANGOR,12966,FRANKLIN,4293,"322 WHEELER ROAD, NORTH BANGOR, New York, 12966",44.868962,-74.3606889
5,NYA00E489,MEDIUM,SHIPMAN FARM,193 COUNTY ROUTE 29,BURKE,12917,FRANKLIN,1160,"193 COUNTY ROUTE 29, BURKE, New York, 12917",44.931986,-74.1695491
5,NYA00E110,MEDIUM,OOMSVIEW HOLSTEINS,561 COUNTY ROUTE 38,CONSTABLE,12926,FRANKLIN,1316,"561 COUNTY ROUTE 38, CONSTABLE, New York, 12926",44.9292125,-74.2971311
5,NYA00E483,MEDIUM,STARGO DAIRY FARM,3 VINCENT ROAD,MALONE,12953,FRANKLIN,1009,"3 VINCENT ROAD, MALONE, New York, 12953",44.861771,-74.202622
,NYA00E512,MEDIUM,ADVENTURE DAIRY,21 DOG HOLLOW ROAD,BOMBAY,12914,FRANKLIN,976,"21 DOG HOLLOW ROAD, BOMBAY, New York, 12914",44.946576,-74.5472769
5,NYA00E491,MEDIUM,SUNSET LAKE FARM #2,542 EAST ROAD,BURKE,12917,FRANKLIN,284,"542 EAST ROAD, BURKE, New York, 12917",44.9591437,-74.1459978
5,NYA00E099,LARGE,BILOW FARMS,1143 COUNTY ROUTE 24,MALONE,12953,FRANKLIN,4354,"1143 COUNTY ROUTE 24, MALONE, New York, 12953",44.8590111,-74.2647434
5,NYA00E092,LARGE,TRAINER FARM,442 COUNTY RTE. 39,CHATEAUGAY,12920,FRANKLIN,1742,"442 COUNTY RTE. 39, CHATEAUGAY, New York, 12920",44.9564654,-74.0466748
5,NYA00E095,MEDIUM,KOVAL BROTHERS DAIRY,313 BURKE ROAD,STILLWATER,12170,SARATOGA,1136,"313 BURKE ROAD, STILLWATER, New York, 12170",43.053216,-73.675198
5,NYA00E108,MEDIUM,BARBER BROTHERS DAIRY,967 ROUTE. 32 NORTH,SCHUYLERVILLE,12871,SARATOGA,1194,"967 ROUTE. 32 NORTH, SCHUYLERVILLE, New York, 12871",43.150931,-73.631841
5,NYA00E451,LARGE,EILDON TWEED FARM,1253 EASTERN AVENUE,WEST CHARLTON,12010,SARATOGA,2509,"1253 EASTERN AVENUE, WEST CHARLTON, New York, 12010",42.952008,-74.015618
5,NYA00E495,LARGE,SARATOGA RACETRACK,267 UNION AVENUE PO BOX 564,SARATOGA SPRINGS,12866,SARATOGA,0,"267 UNION AVENUE PO BOX 564, SARATOGA SPRINGS, New York, 12866",43.0739705,-73.7679799
5,NYA00E125,LARGE,SARATOGA HARNESS RACING,342 JEFFERSON STREET,SARATOGA SPRINGS,12866,SARATOGA,0,"342 JEFFERSON STREET, SARATOGA SPRINGS, New York, 12866",43.0618454,-73.774997
5,NYA00E104,MEDIUM,HANEHAN FAMILY DAIRY,340 COUNTY ROUTE 68,SARATOGA SPRINGS,12866,SARATOGA,1367,"340 COUNTY ROUTE 68, SARATOGA SPRINGS, New York, 12866",43.0831301,-73.7845651
5,NYA00E001,LARGE,TOMAS POULTRY FARM INC,411 STONEBRIDGE ROAD,SCHUYLERVILLE,12871,SARATOGA,505,"411 STONEBRIDGE ROAD, SCHUYLERVILLE, New York, 12871",43.1541893,-73.6107819
5,NYA00E100,LARGE,TURNING POINT DAIRY,220 COUNTY ROUTE 67,SARATOGA SPRINGS,12866,SARATOGA,2049,"220 COUNTY ROUTE 67, SARATOGA SPRINGS, New York, 12866",42.9742214,-73.972044
5,NYA00E496,MEDIUM,CLEAR ECHO FARM,800 ROUTE 32 NORTH,SCHUYLERVILLE,12871,SARATOGA,1358,"800 ROUTE 32 NORTH, SCHUYLERVILLE, New York, 12871",43.1405596,-73.6221387
5,NYA00E089,LARGE,WELCOME STOCK FARM,285 WEST RIVER ROAD,SCHUYLERVILLE,12871,SARATOGA,1513,"285 WEST RIVER ROAD, SCHUYLERVILLE, New York, 12871",43.1460125,-73.6024046
5,NYA00E107,LARGE,KINGS-RANSOM FARM,311 KING ROAD,SCHUYLERVILLE,12871,SARATOGA,2679,"311 KING ROAD, SCHUYLERVILLE, New York, 12871",43.1299859,-73.6263933
5,NYA00E502,LARGE,WALKER FARMS LLC,5565 STATE ROUTE 4,FORT ANN,12827,WASHINGTON,2648,"5565 STATE ROUTE 4, FORT ANN, New York, 12827",43.4038286,-73.4972556
5,NYA00E485,MEDIUM,BLACK CREEK VALLEY FARM,691 COUNTY ROUTE 30,SALEM,12865,WASHINGTON,908,"691 COUNTY ROUTE 30, SALEM, New York, 12865",43.1892382,-73.3760734
5,NYA00E119,LARGE,"LANDVIEW FARM, LLC.",686 COBBLE HILL ROAD,EAGLE BRIDGE,12057,WASHINGTON,2280,"686 COBBLE HILL ROAD, EAGLE BRIDGE, New York, 12057",42.955139,-73.305476
5,NYA00E041,MEDIUM,BROTHERHOOD FARM LLC,1415 STATE ROUTE 40,Greenwich,12834,WASHINGTON,685,"1415 STATE ROUTE 40, Greenwich, New York, 12834",43.0354839,-73.545195
5,NYA00E120,MEDIUM,WOLFF FARMS,794 GIFFORD ROAD,JOHNSONVILLE,12094,WASHINGTON,792,"794 GIFFORD ROAD, JOHNSONVILLE, New York, 12094",42.961042,-73.516668
5,NYA00E505,MEDIUM,HERITAGE HILL FARM,1582 MATTISON ROAD,FORT ANN,12827,WASHINGTON,506,"1582 MATTISON ROAD, FORT ANN, New York, 12827",43.396606,-73.517235
5,NYA00E490,MEDIUM,RED TOP DAIRY,1320 COUNTY ROUTE 24,GRANVILLE,12832,WASHINGTON,1146,"1320 COUNTY ROUTE 24, GRANVILLE, New York, 12832",43.4092874,-73.2600353
5,NYA00E305,LARGE,"KA SUNSET VIEW FARM, LLC.",249 SARLES FERRY ROAD,EASTON,12154,WASHINGTON,0,"249 SARLES FERRY ROAD, EASTON, New York, 12154",43.019136,-73.560159
5,NYA00E486,MEDIUM,FULLERTON DAIRY LLC,382 COUNTY ROUTE 44,ARGYLE,12809,WASHINGTON,929,"382 COUNTY ROUTE 44, ARGYLE, New York, 12809",43.263625,-73.474669
5,NYA00E501,MEDIUM,DEEP ROOTS HOLSTEINS,31 HENDEE ROAD,HUDSON FALLS,12839,WASHINGTON,647,"31 HENDEE ROAD, HUDSON FALLS, New York, 12839",43.349476,-73.530275
5,NYA00E497,MEDIUM,"TWIN BROOK FARM OF HARTFORD, LLC",4495 STATE ROUTE 149,HARTFORD,12838,WASHINGTON,520,"4495 STATE ROUTE 149, HARTFORD, New York, 12838",43.3620259,-73.4135841
5,NYA00E022,LARGE,"ALLENWAITE FARMS, INC.",414 WAITE ROAD,SCHAGHTICOKE,12154,WASHINGTON,3419,"414 WAITE ROAD, SCHAGHTICOKE, New York, 12154",42.998998,-73.559389
5,NYA00E105,LARGE,TIASHOKE FARM,140 MORRIS ROAD,BUSKIRK,12028,WASHINGTON,1795,"140 MORRIS ROAD, BUSKIRK, New York, 12028",42.950516,-73.455599
5,NYA00E182,MEDIUM,BATTENKILL DAIRY FARMS LLC.,100 SKELLIE ROAD,GREENWICH,12834,WASHINGTON,310,"100 SKELLIE ROAD, GREENWICH, New York, 12834",43.117305,-73.416922
5,NYA00E183,MEDIUM,"KENYON HILL FARM, LLC.",19 SUTHERLAND ROAD,CAMBRIDGE,12816,WASHINGTON,1047,"19 SUTHERLAND ROAD, CAMBRIDGE, New York, 12816",43.0728214,-73.3512069
5,NYA00E498,LARGE,IDEAL DAIRY FARMS,239 VAUGHN ROAD,HUDSON FALLS,12839,WASHINGTON,4471,"239 VAUGHN ROAD, HUDSON FALLS, New York, 12839",43.3321561,-73.5799878
5,NYA00E304,LARGE,"CHAMBERS VALLEY FARMS, INC.",432 CHAMBERS ROAD,SALEM,12865,WASHINGTON,1750,"432 CHAMBERS ROAD, SALEM, New York, 12865",43.2048042,-73.2616776
5,NYA00E118,LARGE,"WOODY HILL FARMS, INC.",4330 STATE RTE. 22,SALEM,12865,WASHINGTON,1483,"4330 STATE RTE. 22, SALEM, New York, 12865",43.1570453,-73.3398429
6,NYA00E334,LARGE,DANUBE DAIRIES,453 BELLINGER ROAD,LITTLE FALLS,13365,HERKIMER,1334,"453 BELLINGER ROAD, LITTLE FALLS, New York, 13365",42.9793391,-74.7717763
6,NYA00E391,LARGE,"ENTWISTLE Bros, Farm, LLC",105 BIRDSEYE ROAD,FRANKFORT,13340,HERKIMER,3716,"105 BIRDSEYE ROAD, FRANKFORT, New York, 13340",42.9778387,-75.1462847
6,NYA00E493,MEDIUM,TIMMERMAN FARMS,729 SNELLS BUSH ROAD,LITTLE FALLS,13365,HERKIMER,582,"729 SNELLS BUSH ROAD, LITTLE FALLS, New York, 13365",43.0300579,-74.758208
6,NYA00E389,MEDIUM,"SPRAGUE FARM, LLC.",342 GROS ROAD,FORT PLAIN,13339,HERKIMER,1141,"342 GROS ROAD, FORT PLAIN, New York, 13339",42.892981,-74.763481
6,NYA00E023,LARGE,INSIGHT DAIRY,682 NEWVILLE ROAD,LITTLE FALLS,13365,HERKIMER,2517,"682 NEWVILLE ROAD, LITTLE FALLS, New York, 13365",42.9789751,-74.8321586
6,NYA00E430,LARGE,BUTTERVILLE FARMS,11279 COUNTY ROUTE 75,ADAMS,13605,JEFFERSON,3300,"11279 COUNTY ROUTE 75, ADAMS, New York, 13605",43.8092321,-76.0240892
6,NYA00E053,LARGE,DOUBLEDALE FARM LLC,5601 NYS RT. 289,MANNSVILLE,13661,JEFFERSON,1410,"5601 NYS RT. 289, MANNSVILLE, New York, 13661",43.7478085,-76.1303447
6,NYA00E085,LARGE,MORNING STAR FARMS,13143 COUNTY RTE. 75,ADAMS,13605,JEFFERSON,2200,"13143 COUNTY RTE. 75, ADAMS, New York, 13605",43.8092321,-76.0240892
6,NYA00E052,MEDIUM,BELLE WOOD FARMS,7592 COUNTY ROUTE 75,WOODVILLE,13650,JEFFERSON,679,"7592 COUNTY ROUTE 75, WOODVILLE, New York, 13650",43.7545112,-76.165204
6,NYA00E051,LARGE,DEER RUN DAIRY,12065 BISHOP STREET,ADAMS,13605,JEFFERSON,2713,"12065 BISHOP STREET, ADAMS, New York, 13605",43.8444118,-76.1387593
6,NYA00E431,LARGE,BIRCH CREEK FARM,9133 COUNTY ROUTE 79,HENDERSON,13650,JEFFERSON,2000,"9133 COUNTY ROUTE 79, HENDERSON, New York, 13650",43.791464,-76.196566
6,NYA00E040,LARGE,MURCREST FARMS,31721 NYS ROUTE 12,COPENHAGEN,13626,JEFFERSON,2730,"31721 NYS ROUTE 12, COPENHAGEN, New York, 13626",43.91192,-75.7374069
6,NYA00E453,LARGE,NORTH HARBOR DAIRY,14471 COUNTY ROUTE 145,SACKETS HARBOR,13685,JEFFERSON,7315,"14471 COUNTY ROUTE 145, SACKETS HARBOR, New York, 13685",43.9047365,-76.0837092
6,NYA00E291,MEDIUM,HANCOR HOLSTEIN'S II,31911 STATE ROUTE 37,EVANS MILLS,13637,JEFFERSON,1152,"31911 STATE ROUTE 37, EVANS MILLS, New York, 13637",44.1323158,-75.8531656
6,NYA00E433,MEDIUM,EASTMAN DAIRY FARM,10514 STATE ROUTE. 193,ELLISBURG,13636,JEFFERSON,801,"10514 STATE ROUTE. 193, ELLISBURG, New York, 13636",43.7457296,-76.1632924
6,NYA00E292,MEDIUM,HY-LIGHT FARMS,13723 COUNTY ROUTE 75,ADAMS,13605,JEFFERSON,1197,"13723 COUNTY ROUTE 75, ADAMS, New York, 13605",43.8092321,-76.0240892
6,NYA00E427,MEDIUM,GRIMSHAW DAIRY FARM,9922 COUNTY ROUTE 152,ADAMS,13605,JEFFERSON,866,"9922 COUNTY ROUTE 152, ADAMS, New York, 13605",42.0112025,-74.7733005
6,NYA00E284,LARGE,HILLCREST FARMS,6763 COUNTY ROUTE 78,WOODVILLE,13650,JEFFERSON,2187,"6763 COUNTY ROUTE 78, WOODVILLE, New York, 13650",43.7545112,-76.165204
6,NYA00E298,LARGE,"LOCUST HILL DAIRY, LLC.",2263 HOXIE ROAD,MANNSVILLE,13661,JEFFERSON,4413,"2263 HOXIE ROAD, MANNSVILLE, New York, 13661",43.70047,-76.127652
6,NYA00E424,MEDIUM,MURROCK FARMS,24658 NYS ROUTE 283,WATERTOWN,13601,JEFFERSON,3500,"24658 NYS ROUTE 283, WATERTOWN, New York, 13601",43.9876199,-75.8809829
6,NYA00E428,LARGE,PORTERDALE FARMS,14918 COUNTY ROUTE 155,ADAMS CENTER,13606,JEFFERSON,5192,"14918 COUNTY ROUTE 155, ADAMS CENTER, New York, 13606",43.8600635,-76.0054785
6,NYA00E429,LARGE,CTS DAIRY,10798 NYS ROUTE 193,ELLISBURG,13636,JEFFERSON,3400,"10798 NYS ROUTE 193, ELLISBURG, New York, 13636",43.7456825,-76.1636432
6,NYA00E039,LARGE,SHELAND FARMS,12043 COUNTY ROUTE 79,ADAMS,13605,JEFFERSON,1853,"12043 COUNTY ROUTE 79, ADAMS, New York, 13605",42.7076638,-74.5346103
6,NYA00E037,LARGE,MILK STREET DAIRY,17272 COUNTY RTE. 161,WATERTOWN,13601,JEFFERSON,4166,"17272 COUNTY RTE. 161, WATERTOWN, New York, 13601",43.9164435,-75.7910985
6,NYA00E287,LARGE,WINDSONG DAIRY,20981 FASSETT RD,ADAMS CENTER,13606,JEFFERSON,1338,"20981 FASSETT RD, ADAMS CENTER, New York, 13606",43.8818869,-75.95259
6,NYA00E390,LARGE,"WOOD FARMS, LLC.",9065 COUNTY ROUTE 9,CLAYTON,13624,JEFFERSON,3050,"9065 COUNTY ROUTE 9, CLAYTON, New York, 13624",41.409,-74.05868
6,NYA00E289,LARGE,DOUBLE E DAIRY,4435 BOSHART ROAD,LOWVILLE,13367,LEWIS,1386,"4435 BOSHART ROAD, LOWVILLE, New York, 13367",43.844352,-75.55252
6,NYA00E027,LARGE,DEMKO DAIRY,6334 STATE RT. 26,LOWVILLE,13367,LEWIS,3536,"6334 STATE RT. 26, LOWVILLE, New York, 13367",43.718206,-75.4652779
6,NYA00E025,LARGE,MOSERDALE DAIRY,3755 WILSON ROAD,COPENHAGEN,13626,LEWIS,1547,"3755 WILSON ROAD, COPENHAGEN, New York, 13626",43.874426,-75.6189009
6,NYA00E026,LARGE,WOODS HILL FARMS,6188 HOUSEVILLE ROAD,TURIN,13473,LEWIS,1580,"6188 HOUSEVILLE ROAD, TURIN, New York, 13473",43.6947509,-75.420249
6,NYA00E492,MEDIUM,SILVERY FALLS FARM,6808 BARDO ROAD,LOWVILLE,13367,LEWIS,539,"6808 BARDO ROAD, LOWVILLE, New York, 13367",43.784694,-75.510353
6,NYA00E425,MEDIUM,BUTLER CREEK DAIRY FARM,7451 SNELL ROAD,LOWVILLE,13367,LEWIS,350,"7451 SNELL ROAD, LOWVILLE, New York, 13367",43.8214727,-75.4329301
6,NYA00E034,MEDIUM,KENNELL FARMS,8717 ST. RTE. 12,COPENHAGEN,13626,LEWIS,1846,"8717 ST. RTE. 12, COPENHAGEN, New York, 13626",43.8486473,-75.6074589
6,NYA00E426,MEDIUM,HANNO FARMS,4557 ARTHUR ROAD,LOWVILLE,13367,LEWIS,309,"4557 ARTHUR ROAD, LOWVILLE, New York, 13367",43.849975,-75.545338
6,NYA00E019,LARGE,BELLER FARMS,10866 STATE ROUTE 126,CARTHAGE,13619,LEWIS,2033,"10866 STATE ROUTE 126, CARTHAGE, New York, 13619",43.9281584,-75.5380519
6,NYA00E293,LARGE,POMINVILLES DAIRY,6967 TEXAS ROAD,CROGHAN,13327,LEWIS,1618,"6967 TEXAS ROAD, CROGHAN, New York, 13327",43.9835283,-75.3777981
6,NYA00E394,MEDIUM,SMITHLING FARM,6715 STATE ROUTE 26,MARTINSBURG,13404,LEWIS,440,"6715 STATE ROUTE 26, MARTINSBURG, New York, 13404",43.7386374,-75.4722184
6,NYA00E294,MEDIUM,CONWAY DAIRY FARMS,4078 EAST ROAD,TURIN,13473,LEWIS,1049,"4078 EAST ROAD, TURIN, New York, 13473",43.6271308,-75.3934394
6,NYA00E285,LARGE,MARKS FARMS,6314 CANNAN ROAD,LOWVILLE,13367,LEWIS,7575,"6314 CANNAN ROAD, LOWVILLE, New York, 13367",43.745074,-75.4266895
6,NYA00E286,MEDIUM,HANCOR HOLSTEINS,10300 STATE ROUTE 126,CASTORLAND,13620,LEWIS,2332,"10300 STATE ROUTE 126, CASTORLAND, New York, 13620",43.9255462,-75.5111237
6,NYA00E288,MEDIUM,CARROLL FARMS,2213 COUNTY ROUTE 194,COPENHAGEN,13626,LEWIS,533,"2213 COUNTY ROUTE 194, COPENHAGEN, New York, 13626",43.8823335,-75.6981006
6,NYA00E436,LARGE,BRABANT FARM,6166 HAPPY VALLEY ROAD,VERONA,13478,ONEIDA,1875,"6166 HAPPY VALLEY ROAD, VERONA, New York, 13478",43.1810155,-75.6289246
6,NYA00E437,LARGE,FINNDALE FARMS,9112 JONES ROAD,HOLLAND PATENT,13354,ONEIDA,2090,"9112 JONES ROAD, HOLLAND PATENT, New York, 13354",43.309086,-75.247359
6,NYA00E438,LARGE,CHAMPION FARMS,6793 CHAMPION ROAD,CLINTON,13323,ONEIDA,1822,"6793 CHAMPION ROAD, CLINTON, New York, 13323",43.0296631,-75.4249455
6,NYA00E447,LARGE,GALLAGHER FARMS,2341 ROUTE 315,DEANSBORO,13328,ONEIDA,1074,"2341 ROUTE 315, DEANSBORO, New York, 13328",42.976956,-75.424284
6,NYA00E393,MEDIUM,"VERNON DOWNS RACETRACK, LLC.",4229 STUHLMAN ROAD,VERNON,13476,ONEIDA,19,"4229 STUHLMAN ROAD, VERNON, New York, 13476",43.0667873,-75.527955
6,NYA00E117,LARGE,TRUANDVIN DAIRY,5675 GRIFFIN ROAD,ORISKANY FALLS,13425,ONEIDA,0,"5675 GRIFFIN ROAD, ORISKANY FALLS, New York, 13425",42.9392363,-75.4610076
6,NYA00E434,LARGE,COLLINS KNOLL FARM,9499 ELM STREET,CHADWICKS,13319,ONEIDA,3059,"9499 ELM STREET, CHADWICKS, New York, 13319",43.0228798,-75.2548928
6,NYA00E435,LARGE,CURTIN DAIRY,9815 SHAUL ROAD,CASSVILLE,13318,ONEIDA,5686,"9815 SHAUL ROAD, CASSVILLE, New York, 13318",42.923314,-75.233121
6,NYA00E003,MEDIUM,VAILL BROTHERS DAIRY,4549 STATE RTE. 26,VERNON,13323,ONEIDA,1634,"4549 STATE RTE. 26, VERNON, New York, 13323",43.08151,-75.505347
6,NYA00E054,MEDIUM,"GOTHAM FAMILY FARM, LLC",182 COUNTY ROUTE 21,HERMON,13652,ST. LAWRENCE,1405,"182 COUNTY ROUTE 21, HERMON, New York, 13652",44.515102,-75.186143
6,NYA00E452,LARGE,WOODCREST DAIRY LLC,322 WOOD ROAD,LISBON,13658,ST. LAWRENCE,4780,"322 WOOD ROAD, LISBON, New York, 13658",44.727627,-75.3811851
6,NYA00E049,LARGE,KELLY FARM,2121 KELLY ROAD,RENSSELAER FALLS,13680,ST. LAWRENCE,1767,"2121 KELLY ROAD, RENSSELAER FALLS, New York, 13680",44.570993,-75.373225
6,NYA00E301,LARGE,STAUFFER FARMS LLC,925 COUNTY ROUTE 54,NORTH LAWRENCE,12967,ST. LAWRENCE,3476,"925 COUNTY ROUTE 54, NORTH LAWRENCE, New York, 12967",44.7717839,-74.6698253
6,NYA00E392,MEDIUM,"FLACK FARM, LLC.",10 FLACK ROAD,LISBON,13658,ST. LAWRENCE,561,"10 FLACK ROAD, LISBON, New York, 13658",44.7385391,-75.3173587
6,NYA00E057,LARGE,GEBARTEN ACRES OPERATION LLC,393 EAST DEKALB ROAD,HERMON,13652,ST. LAWRENCE,3520,"393 EAST DEKALB ROAD, HERMON, New York, 13652",44.4850609,-75.3021568
6,NYA00E455,MEDIUM,FOBARE FARM,358 COLES CREEK ROAD,WADDINGTON,13694,ST. LAWRENCE,879,"358 COLES CREEK ROAD, WADDINGTON, New York, 13694",44.874111,-75.10061
6,NYA00E116,MEDIUM,SHADY BROOK FARM,3544 COUNTY RT. 10,DEPEYSTER,13633,ST. LAWRENCE,210,"3544 COUNTY RT. 10, DEPEYSTER, New York, 13633",44.5525744,-75.435437
6,NYA00E024,MEDIUM,TWIN MILL FARMS,798 FIVE MILE LINE,OGDENSBURG,13669,ST. LAWRENCE,819,"798 FIVE MILE LINE, OGDENSBURG, New York, 13669",44.7413447,-75.3487639
6,NYA00E296,LARGE,GREENWOOD DAIRY FARM LLC,1087 STATE HWY. 310,CANTON,13617-3378,ST. LAWRENCE,3122,"1087 STATE HWY. 310, CANTON, New York, 13617-3378",44.715547,-75.1444064
6,NYA00E059,LARGE,CHAMBERS FARMS LLC,2409 STATE HWY. 184,HEUVELTON,13654,ST. LAWRENCE,2500,"2409 STATE HWY. 184, HEUVELTON, New York, 13654",44.594024,-75.4294819
6,NYA00E111,LARGE,MAPLEVIEW DAIRY,307 JONES ROAD,MADRID,13660,ST. LAWRENCE,4716,"307 JONES ROAD, MADRID, New York, 13660",44.7396263,-75.1555085
6,NYA00E297,MEDIUM,NORCO FARMS,2812 STATE HIGHWAY 11B,HOPKINTON,12965,ST. LAWRENCE,2856,"2812 STATE HIGHWAY 11B, HOPKINTON, New York, 12965",44.6866775,-74.707202
6,NYA00E112,LARGE,FIVE MILE FARM,296 FIVE MILE LINE ROAD,LISBON,13658,ST. LAWRENCE,891,"296 FIVE MILE LINE ROAD, LISBON, New York, 13658",44.708589,-75.319796
6,NYA00E113,LARGE,MCKNIGHT'S RIVER-BREEZE FARM,54 MCKNIGHT ROAD,CHASE MILLS,13621,ST. LAWRENCE,4054,"54 MCKNIGHT ROAD, CHASE MILLS, New York, 13621",44.8489423,-75.0807625
6,NYA00E114,LARGE,FOREST VIEW HEIFERS,307 JONES ROAD,MADRID,13660,ST. LAWRENCE,,"307 JONES ROAD, MADRID, New York, 13660",44.7396263,-75.1555085
6,NYA00E299,MEDIUM,C & M DAIRY LLC,528 COUNTY ROUTE 30,LISBON,13658,ST. LAWRENCE,1836,"528 COUNTY ROUTE 30, LISBON, New York, 13658",44.727284,-75.3210467
6,NYA00E047,MEDIUM,DORI B'S FARM,4424 COUNTY ROUTE 10,DEPEYSTER,13633,ST. LAWRENCE,943,"4424 COUNTY ROUTE 10, DEPEYSTER, New York, 13633",44.5523194,-75.427592
6,NYA00E115,LARGE,ROYAL-J-ACRES,47 MCGOWAN ROAD,OGDENSBURG,13669,ST. LAWRENCE,4319,"47 MCGOWAN ROAD, OGDENSBURG, New York, 13669",44.6415213,-75.4608761
6,NYA00E048,LARGE,ADON FARMS,498 STATE HWY. 72,POTSDAM,13676,ST. LAWRENCE,3058,"498 STATE HWY. 72, POTSDAM, New York, 13676",44.626644,-74.934763
6,NYA00E050,MEDIUM,"TERIELE FAMILY DAIRY, LLC",1925 OLD DEKALB ROAD,CANTON,13617,ST. LAWRENCE,1671,"1925 OLD DEKALB ROAD, CANTON, New York, 13617",44.5932228,-75.18651
6,NYA00E300,LARGE,"L. T. SMITH & SONS FARMS, LLC",2181 COUNTY ROUTE 14,CANTON,13617,ST. LAWRENCE,1475,"2181 COUNTY ROUTE 14, CANTON, New York, 13617",44.67033,-74.4166053
6,NYA00E514,MEDIUM,CORSCADDEN FAMILY FARM,1334 RIVER ROAD,RICHVILLE,13681,ST. LAWRENCE,1132,"1334 RIVER ROAD, RICHVILLE, New York, 13681",44.466222,-75.392697
7,NYA00E410,LARGE,"GLEZEN FARMS, LLC.",1024 CALDWELL HILL ROAD,LISLE,13797,BROOME,1913,"1024 CALDWELL HILL ROAD, LISLE, New York, 13797",42.3343511,-76.0777858
7,NYA00E414,MEDIUM,WHITTAKER FARMS LLC,4585 ROUTE 26,WHITNEY POINT,13862,BROOME,1581,"4585 ROUTE 26, WHITNEY POINT, New York, 13862",42.3143421,-75.997277
7,NYA00E374,LARGE,Winsor Acres,2906 RTE. 79,HARPURSVILLE,13787,BROOME,2860,"2906 RTE. 79, HARPURSVILLE, New York, 13787",42.1455956,-75.5929659
7,NYA00E263,LARGE,ASHLAND FARM,2620 STATE ROUTE 34B,AURORA,13026,CAYUGA,1907,"2620 STATE ROUTE 34B, AURORA, New York, 13026",42.7443535,-76.617669
7,NYA00E417,LARGE,ROACH FARM,2227 STEWART CORNERS ROAD,SCIPIO CENTER,13147,CAYUGA,1438,"2227 STEWART CORNERS ROAD, SCIPIO CENTER, New York, 13147",42.728225,-76.5154359
7,NYA00E124,LARGE,"GREEN HILL DAIRY, INC.",2325 MOSHER ROAD,SCIPIO CENTER,13147,CAYUGA,1070,"2325 MOSHER ROAD, SCIPIO CENTER, New York, 13147",42.8252907,-76.5792088
7,NYA00E240,MEDIUM,LOCKWOOD FARMS,1877 STATE ROAD ROUTE 326,AUBURN,13021,CAYUGA,585,"1877 STATE ROAD ROUTE 326, AUBURN, New York, 13021",42.8975099,-76.633546
7,NYA00E449,MEDIUM,RIPLEY FARMS,6565 EATON ROAD,MORAVIA,13118,CAYUGA,1345,"6565 EATON ROAD, MORAVIA, New York, 13118",42.6925932,-76.308768
7,NYA00E418,LARGE,"PINE HOLLOW DAIRY, LLC",1118 EAST VENICE ROAD,LOCKE,13092,CAYUGA,1336,"1118 EAST VENICE ROAD, LOCKE, New York, 13092",42.6731424,-76.4999089
7,NYA00E419,LARGE,"LINCOLN DAIRY, LLC.",1939 DOUGALL ROAD,AUBURN,13021,CAYUGA,2826,"1939 DOUGALL ROAD, AUBURN, New York, 13021",42.890663,-76.613431
7,NYA00E295,LARGE,SCIPIO SPRINGS DAIRY,2049 MOSHER ROAD,UNION SPRINGS,13160,CAYUGA,2065,"2049 MOSHER ROAD, UNION SPRINGS, New York, 13160",42.826817,-76.605636
7,NYA00E337,MEDIUM,KA-VERN FARMS,9711 BONTA BRIDGE ROAD,JORDAN,13086,CAYUGA,559,"9711 BONTA BRIDGE ROAD, JORDAN, New York, 13086",43.0818497,-76.5190727
7,NYA00E420,LARGE,"RIDGECREST DAIRY, LLC",1374 INDIAN FIELD ROAD,GENOA,13071,CAYUGA,79,"1374 INDIAN FIELD ROAD, GENOA, New York, 13071",42.6902596,-76.5519335
7,NYA00E422,LARGE,"PETER'S DAIRY, Inc",4093 MILLER ROAD,AUBURN,13021,CAYUGA,1655,"4093 MILLER ROAD, AUBURN, New York, 13021",42.9863594,-76.4676507
7,NYA00E042,LARGE,VANS RIDGE FARM,2831 BLACK STREET,SCIPIO CENTER,13147,CAYUGA,1339,"2831 BLACK STREET, SCIPIO CENTER, New York, 13147",42.7549505,-76.5785556
7,NYA00E272,MEDIUM,VALLEY MOUND FARMS,2480 SHERWOOD ROAD,SCIPIO CENTER,13147,CAYUGA,528,"2480 SHERWOOD ROAD, SCIPIO CENTER, New York, 13147",42.768689,-76.578038
7,NYA00E273,MEDIUM,HATFIELD FARMS,3266 STATE ROUTE 34,SCIPIO CENTER,13147,CAYUGA,460,"3266 STATE ROUTE 34, SCIPIO CENTER, New York, 13147",42.777208,-76.553477
7,NYA00E445,MEDIUM,CEDAR PINE FARM,2724 SKILLET ROAD,SCIPIO CENTER,13147,CAYUGA,538,"2724 SKILLET ROAD, SCIPIO CENTER, New York, 13147",42.8257897,-76.5655408
7,NYA00E038,LARGE,WILLET DAIRY LLC,379 STATE ROUTE 34,LOCKE,13092,CAYUGA,7549,"379 STATE ROUTE 34, LOCKE, New York, 13092",42.648459,-76.5084916
7,NYA00E009,LARGE,"AURORA RIDGE DAIRY, LLC",2542 ANGLING ROAD,AURORA,13026,CAYUGA,5072,"2542 ANGLING ROAD, AURORA, New York, 13026",42.7417299,-76.657071
7,NYA00E008,LARGE,SPRUCE HAVEN FARM LLC,5004 WHITE ROAD,UNION SPRINGS,13160,CAYUGA,2440,"5004 WHITE ROAD, UNION SPRINGS, New York, 13160",42.8606369,-76.607783
7,NYA00E031,LARGE,"SUNNYSIDE FARMS, INC.",2243 INDIAN FIELD ROAD,SCIPIO,13147,CAYUGA,6700,"2243 INDIAN FIELD ROAD, SCIPIO, New York, 13147",42.7263991,-76.5707224
7,NYA00E071,MEDIUM,"ELKENDALE FARMS, LLC",384 TUPPER ROAD,LOCKE,13092,CAYUGA,874,"384 TUPPER ROAD, LOCKE, New York, 13092",42.637878,-76.501916
7,NYA00E012,MEDIUM,"FESSENDEN DAIRY, LLC",STATE ROUTE 34B,KING FERRY,13081,CAYUGA,935,"STATE ROUTE 34B, KING FERRY, New York, 13081",42.6653233,-76.6167743
7,NYA00E310,LARGE,CONQUEST CATTLE FEEDERS,10765 COOPER STREET,CATO,13033,CAYUGA,843,"10765 COOPER STREET, CATO, New York, 13033",43.140179,-76.642615
7,NYA00E007,LARGE,OAKWOOD DAIRY LLC,1290 CHAMBERLAIN ROAD,AUBURN,13021,CAYUGA,3509,"1290 CHAMBERLAIN ROAD, AUBURN, New York, 13021",42.9147865,-76.6632306
7,NYA00E123,LARGE,"PATTERSON FARMS, INC.",1131 TOWN LINE ROAD,AUBURN,13021,CAYUGA,2580,"1131 TOWN LINE ROAD, AUBURN, New York, 13021",42.8968826,-76.6647788
7,NYA00E411,MEDIUM,SPRINGBROOK FARMS,3658 ROUTE 34B,SCIPIO CENTER,13147,CAYUGA,1172,"3658 ROUTE 34B, SCIPIO CENTER, New York, 13147",42.7900905,-76.619178
7,NYA00E460,LARGE,ALLEN FARMS,140 HUNTER ROAD,SCIPIO CENTER,13147,CAYUGA,3589,"140 HUNTER ROAD, SCIPIO CENTER, New York, 13147",42.798267,-76.54509
7,NYA00E081,MEDIUM,"INDIAN CAMP FARM, LLC",646 STATE HIGHWAY 12B,EARLVILLE,13332,CHENANGO,1065,"646 STATE HIGHWAY 12B, EARLVILLE, New York, 13332",42.7185167,-75.5397311
7,NYA00E421,LARGE,HANEHAN FAMILY DAIRY LLC,614 ST. HWY. 8,MT. UPTON,13809,CHENANGO,1743,"614 ST. HWY. 8, MT. UPTON, New York, 13809",42.3557476,-75.4016716
7,NYA00E080,MEDIUM,HAPPY VALLEY FARM,669 WEST HILL ROAD,SHERBURNE,13460,CHENANGO,725,"669 WEST HILL ROAD, SHERBURNE, New York, 13460",42.6849851,-75.5341297
7,NYA00E082,MEDIUM,"JOHNSON FARMS, LLC",4995 STATE HIGHWAY 80,NEW BERLIN,13411,CHENANGO,944,"4995 STATE HIGHWAY 80, NEW BERLIN, New York, 13411",42.6567613,-75.3432552
7,NYA00E258,MEDIUM,MARSHMAN FARMS,3633 COUNTY ROUTE 32,OXFORD,13830,CHENANGO,1076,"3633 COUNTY ROUTE 32, OXFORD, New York, 13830",42.3923869,-78.609938
7,NYA00E461,LARGE,"CURRIE VALLEY DAIRY, LLC.",2267 CURRIE ROAD,TULLY,13159,CORTLAND,1454,"2267 CURRIE ROAD, TULLY, New York, 13159",42.746575,-76.134047
7,NYA00E396,LARGE,"PREBLE HILL FARM, LLC",6993 W. BENNETT HOLLOW ROAD,PREBLE,13141,CORTLAND,1800,"6993 W. BENNETT HOLLOW ROAD, PREBLE, New York, 13141",42.7449594,-76.1728039
7,NYA00E266,LARGE,NEW HOPE VIEW FARM,5937 STATE ROUTE 11,HOMER,13077,CORTLAND,1915,"5937 STATE ROUTE 11, HOMER, New York, 13077",42.6936856,-76.1519916
7,NYA00E465,MEDIUM,"DAIRYLAND, LLC.",4165 ROUTE 221,MARATHON,13803,CORTLAND,1600,"4165 ROUTE 221, MARATHON, New York, 13803",42.453035,-76.000761
7,NYA00E340,LARGE,"RIVERSIDE DAIRY, LLC",2388 LOWER CINCINNATUS RD,CINCINNATUS,13040,CORTLAND,1504,"2388 LOWER CINCINNATUS RD, CINCINNATUS, New York, 13040",42.5174064,-75.8970451
7,NYA00E448,MEDIUM,DRAKE DAIRY FARM,1271 MUCKEY ROAD,MARATHON,13803,CORTLAND,405,"1271 MUCKEY ROAD, MARATHON, New York, 13803",42.469582,-76.084453
7,NYA00E457,MEDIUM,JERRY DELL FARM,2219 GEE HILL ROAD,DRYDEN,13053,CORTLAND,1775,"2219 GEE HILL ROAD, DRYDEN, New York, 13053",42.517961,-76.2552369
7,NYA00E256,LARGE,WHEY STREET DAIRY,7115 WEST KEENEY ROAD,CUYLER,13158,CORTLAND,1222,"7115 WEST KEENEY ROAD, CUYLER, New York, 13158",42.7506377,-75.9613374
7,NYA00E257,LARGE,EAST RIVER DAIRY,4979 EAST RIVER CROSSING,CORTLAND,13045,CORTLAND,2039,"4979 EAST RIVER CROSSING, CORTLAND, New York, 13045",42.6473872,-76.1219838
7,NYA00E412,MEDIUM,CORNELL UNIVERSITY RUMINANT CENTER,681 CORNELL LANE,DRYDEN,13053,CORTLAND,1727,"681 CORNELL LANE, DRYDEN, New York, 13053",42.4384019,-76.2463024
7,NYA00E459,LARGE,MCMAHON'S E-Z ACRES,5940 WEST SCOTT ROAD,HOMER,13077,CORTLAND,1716,"5940 WEST SCOTT ROAD, HOMER, New York, 13077",42.693948,-76.2341507
7,NYA00E462,MEDIUM,WILLOW BREEZE FARM,5799 ROUTE 41,HOMER,13077,CORTLAND,1107,"5799 ROUTE 41, HOMER, New York, 13077",42.6974354,-76.2276697
7,NYA00E415,LARGE,"WHITE EAGLE FARMS, LLC",2495 SMITH ROAD,HAMILTON,13346,MADISON,3937,"2495 SMITH ROAD, HAMILTON, New York, 13346",42.8483631,-75.5789851
7,NYA00E278,MEDIUM,HOLMES ACRE EAST,6776 STRIP ROAD,MADISON,13402,MADISON,294,"6776 STRIP ROAD, MADISON, New York, 13402",42.9429364,-75.554734
7,NYA00E265,MEDIUM,MORRISVILLE STATE COLLEGE DAIRY FARM,80 EATON STREET,MORRISVILLE,13408,MADISON,1000,"80 EATON STREET, MORRISVILLE, New York, 13408",42.8944699,-75.6454025
7,NYA00E279,MEDIUM,SPRINGWATER FARMS,7338 OXBOW ROAD,CANASTOTA,13032,MADISON,1358,"7338 OXBOW ROAD, CANASTOTA, New York, 13032",43.046694,-75.74285
7,NYA00E013,LARGE,TUSCARORA DAIRY,902 TUSCARORU ROAD,CHITTENANGO,13037,MADISON,2276,"902 TUSCARORU ROAD, CHITTENANGO, New York, 13037",43.056546,-75.901648
7,NYA00E280,MEDIUM,HOLMES ACRE,2876 EAST ROAD,NEW WOODSTOCK,13122,MADISON,1156,"2876 EAST ROAD, NEW WOODSTOCK, New York, 13122",42.8616084,-75.8539693
7,NYA00E282,MEDIUM,MY-BAR-K MEADOWS,5095 STRAIN ROAD EAST,MUNNSVILLE,13409,MADISON,913,"5095 STRAIN ROAD EAST, MUNNSVILLE, New York, 13409",42.9693489,-75.5496902
7,NYA00E281,MEDIUM,"CEDAR KNOBS, FARMS",4496 JOHNSON ROAD,MUNNSVILLE,13409,MADISON,768,"4496 JOHNSON ROAD, MUNNSVILLE, New York, 13409",42.9413595,-75.6296407
7,NYA00E283,MEDIUM,EFS,730 ROUTE 12B,HAMILTON,13346,MADISON,660,"730 ROUTE 12B, HAMILTON, New York, 13346",42.765133,-75.5504424
7,NYA00E271,MEDIUM,MORRISVILLE STATE COLLEGE -EQUINE FACILITY,4550 SWAMP ROAD,MORRISVILLE,13408,MADISON,176,"4550 SWAMP ROAD, MORRISVILLE, New York, 13408",42.9397929,-75.6619929
7,NYA00E086,LARGE,MAPLE TREE GAS FARM,3651 INGALLS CORNERS ROAD,CANASTOTA,13032,MADISON,2425,"3651 INGALLS CORNERS ROAD, CANASTOTA, New York, 13032",43.0214635,-75.7570393
7,NYA00E276,MEDIUM,GATEHOUSE FARMS,1260 EAST LAKE ROAD,DERUYTER,13052,MADISON,1335,"1260 EAST LAKE ROAD, DERUYTER, New York, 13052",42.7858343,-75.8756093
7,NYA00E335,MEDIUM,"EASTVIEW FARMS, LLC.",1775 RIDGE ROAD,FABIUS,13063,ONONDAGA,1048,"1775 RIDGE ROAD, FABIUS, New York, 13063",42.857095,-75.986056
7,NYA00E336,LARGE,VENTURE FARMS LLC,6897 ROUTE 80,TULLY,13159,ONONDAGA,974,"6897 ROUTE 80, TULLY, New York, 13159",42.8269455,-76.0456486
7,NYA00E463,MEDIUM,LAWRENCE DOODY & SONS FARM,1626 BARKER STREET,TULLY,13159,ONONDAGA,827,"1626 BARKER STREET, TULLY, New York, 13159",42.8499386,-76.1991762
7,NYA00E264,LARGE,SMITH QUALITY EGGS,7047 KELLY ROAD,LAFAYETTE,13084,ONONDAGA,916,"7047 KELLY ROAD, LAFAYETTE, New York, 13084",42.886217,-76.034503
7,NYA00E313,MEDIUM,LEUBNER DAIRY FARM,2376 CHURCH ROAD,MARIETTA,13110,ONONDAGA,1513,"2376 CHURCH ROAD, MARIETTA, New York, 13110",42.8975214,-76.3429478
7,NYA00E464,LARGE,"FESKO DAIRY, LLC.",1261 EAST LAKE ROAD,SKANEATELES,13152,ONONDAGA,1761,"1261 EAST LAKE ROAD, SKANEATELES, New York, 13152",42.8383158,-76.2961434
7,NYA00E314,LARGE,VOLLES DAIRY FARM,2849 BUCKWHEAT ROAD,MARIETTA,13110,ONONDAGA,2729,"2849 BUCKWHEAT ROAD, MARIETTA, New York, 13110",42.907676,-76.245166
7,NYA00E338,LARGE,FABIUS GREENWOOD FARM LLC,1533 ROUTE 91,FABIUS,13063,ONONDAGA,1398,"1533 ROUTE 91, FABIUS, New York, 13063",42.8470214,-75.9972472
7,NYA00E268,LARGE,"WILLIAM RICHARDS & SONS, LLC.",1827 NEW SENECA TURNPIKE,SKANEATELES,13152,ONONDAGA,1478,"1827 NEW SENECA TURNPIKE, SKANEATELES, New York, 13152",42.9567886,-76.3797174
7,NYA00E270,MEDIUM,BLUME AGAIN DAIRY,617 WHITING ROAD,JORDAN,13080,ONONDAGA,824,"617 WHITING ROAD, JORDAN, New York, 13080",43.057997,-76.458907
7,NYA00E423,MEDIUM,PASTURELAND DAIRY,8062 #2 WEST ROAD,MANLIUS,13104,ONONDAGA,1160,"8062 #2 WEST ROAD, MANLIUS, New York, 13104",42.9540127,-75.9701898
7,NYA00E306,LARGE,HUDSON EGG FARMS,1812 RTE. 5 EAST,ELBRIDGE,13060,ONONDAGA,0,"1812 RTE. 5 EAST, ELBRIDGE, New York, 13060",43.029603,-76.3749101
7,NYA00E395,LARGE,"HALF FULL DAIRY, LLC",897 GORHAM ROAD,ELBRIDGE,13060,ONONDAGA,6659,"897 GORHAM ROAD, ELBRIDGE, New York, 13060",43.0223553,-76.4402052
7,NYA00E308,LARGE,TWIN BIRCH DAIRY,1840 BENSON ROAD,SKANEATELES,13152,ONONDAGA,2608,"1840 BENSON ROAD, SKANEATELES, New York, 13152",42.8628143,-76.4476578
7,NYA00E309,LARGE,ELMER RICHARDS & SONS,2101 CHERRY VALLEY TURNPIKE,SKANEATELES,13152,ONONDAGA,3734,"2101 CHERRY VALLEY TURNPIKE, SKANEATELES, New York, 13152",42.93908,-76.365233
7,NYA00E458,MEDIUM,"CO-VALE HOLSTIENS, LLC.",1010 OTISCO VALLEY ROAD,PREBLE,13141,ONONDAGA,983,"1010 OTISCO VALLEY ROAD, PREBLE, New York, 13141",42.820979,-76.222581
7,NYA00E122,LARGE,"BARBLAND FARMS, INC.",8527 VIRGIL ROAD,FABIUS,13063,ONONDAGA,3665,"8527 VIRGIL ROAD, FABIUS, New York, 13063",42.8516229,-75.942684
7,NYA00E259,MEDIUM,SCHOLTEN DAIRY,7120 EAST SORRELL HILL ROAD,BALDWINSVILLE,13027,ONONDAGA,1551,"7120 EAST SORRELL HILL ROAD, BALDWINSVILLE, New York, 13027",43.115723,-76.347218
7,NYA00E260,MEDIUM,MAPLEHURST FARM,355 VINCENT CORNERS ROAD,CUYLER,13158,ONONDAGA,884,"355 VINCENT CORNERS ROAD, CUYLER, New York, 13158",42.7891296,-75.9559706
7,NYA00E413,LARGE,"HOURIGAN FAMILY DAIRY, LLC",3419 AMBER ROAD,SYRACUSE,13215,ONONDAGA,3483,"3419 AMBER ROAD, SYRACUSE, New York, 13215",42.9363858,-76.2745904
7,NYA00E261,MEDIUM,"FRAZEE FARMS, LLC.",8770 NUMBER 4 EAST ROAD,FABIUS,13063,ONONDAGA,1596,"8770 NUMBER 4 EAST ROAD, FABIUS, New York, 13063",42.8735913,-75.9439859
7,NYA00E005,MEDIUM,"MEAD FARM, LLC",24 MEAD ROAD,OWEGO,13827,TIOGA,1252,"24 MEAD ROAD, OWEGO, New York, 13827",42.0156877,-76.2435676
7,NYA00E397,MEDIUM,"TIOGA DOWNS RACETRACK, LLC",2384 WEST RIVER ROAD,NICHOLS,13812,TIOGA,0,"2384 WEST RIVER ROAD, NICHOLS, New York, 13812",42.0252966,-76.4187963
7,NYA00E349,LARGE,FARVIEW FARMS LLC,3275 ROUTE 38B,NEWARK VALLEY,13811,TIOGA,185,"3275 ROUTE 38B, NEWARK VALLEY, New York, 13811",42.1925592,-76.1366376
7,NYA00E456,MEDIUM,AA DAIRY,56 FOOTE CROSSING,CANDOR,13743,TIOGA,1336,"56 FOOTE CROSSING, CANDOR, New York, 13743",42.2325702,-76.3607713
7,NYA00E416,LARGE,MILLBROOK FARM,440 STEVENS ROAD,FREEVILLE,13068,TOMPKINS,1271,"440 STEVENS ROAD, FREEVILLE, New York, 13068",42.5638211,-76.3273431
7,NYA00E269,MEDIUM,VISION QUEST DAIRY,402 LANSINGVILLE ROAD,LANSING,14882,TOMPKINS,455,"402 LANSINGVILLE ROAD, LANSING, New York, 14882",42.580982,-76.549044
7,NYA00E055,LARGE,"FULLER FAMILY DAIRY, LLC",1002 ELM STREET  EXT.,GROTON,13073,TOMPKINS,1135,"1002 ELM STREET  EXT., GROTON, New York, 13073",42.5853153,-76.3253262
7,NYA00E121,LARGE,"WALNUT RIDGE DAIRY, LLC.",100 BROWN HILL ROAD,LANSING,14882,TOMPKINS,2222,"100 BROWN HILL ROAD, LANSING, New York, 14882",42.5942963,-76.5195894
7,NYA00E255,MEDIUM,JERRY DELL DRYDEN FARM,433 LIVERMORE ROAD,DRYDEN,13503,TOMPKINS,678,"433 LIVERMORE ROAD, DRYDEN, New York, 13503",42.5155815,-76.2795227
7,NYA00E307,MEDIUM,FOUTS FARM,1393 NYS ROUTE 222,CORTLAND,13045,TOMPKINS,1154,"1393 NYS ROUTE 222, CORTLAND, New York, 13045",42.5997166,-76.2000253
7,NYA00E311,LARGE,"BECK FARMS, LLC.",28 RED MILL ROAD,FREEVILLE,13068,TOMPKINS,2558,"28 RED MILL ROAD, FREEVILLE, New York, 13068",42.529833,-76.330185
7,NYA00E312,MEDIUM,COOK FARMS,201 LOCKERBY HILL ROAD,LANSING,14882,TOMPKINS,876,"201 LOCKERBY HILL ROAD, LANSING, New York, 14882",42.588363,-76.538991
8,NYA00E511,MEDIUM,VANCE FARMS LLC,95 CAMPGROUND ROAD,BEAVER DAMS,14812,SCHUYLER-CHEMUNG,929,"95 CAMPGROUND ROAD, BEAVER DAMS, New York, 14812",42.26292,-76.962947
8,NYA00E473,MEDIUM,"LLOYDS USA DEVELOPMENT, INC.",521 MAIN STREET,WAVERLY,14892,CHEMUNG,871,"521 MAIN STREET, WAVERLY, New York, 14892",42.005442,-76.603921
8,NYA00E017,LARGE,MCCORMICK FAMILY DAIRY,10889 SAND PIT ROAD,ALEXANDER,14005,GENESEE,1917,"10889 SAND PIT ROAD, ALEXANDER, New York, 14005",42.882978,-78.243069
8,NYA00E191,MEDIUM,COTTONWOOD FARMS,10771 COOK ROAD,PAVILION,14525,GENESEE,924,"10771 COOK ROAD, PAVILION, New York, 14525",42.891215,-78.028259
8,NYA00E355,LARGE,"OAK ORCHARD DAIRY, LLC.",6258 OAK ORCHARD ROAD,ELBA,14058,GENESEE,748,"6258 OAK ORCHARD ROAD, ELBA, New York, 14058",43.1147957,-78.174537
8,NYA00E016,LARGE,BASKIN LIVESTOCK,9778 CREEK ROAD,BATAVIA,14020,GENESEE,1002,"9778 CREEK ROAD, BATAVIA, New York, 14020",42.9433314,-78.1824666
8,NYA00E140,LARGE,STEIN FARMS,8343 GULLY ROAD,LEROY,14482,GENESEE,2250,"8343 GULLY ROAD, LEROY, New York, 14482",43.0148603,-77.932992
8,NYA00E021,MEDIUM,"POST DAIRY FARMS, LLC",4109 BATAVIA-ELBA TOWNLINE ROAD,ELBA,14058,GENESEE,760,"4109 BATAVIA-ELBA TOWNLINE ROAD, ELBA, New York, 14058",43.0498369,-78.20967
8,NYA00E193,MEDIUM,VALLEY VIEW FARMS,9970 ROUTE 98,ALEXANDER,14005,GENESEE,771,"9970 ROUTE 98, ALEXANDER, New York, 14005",42.4365019,-78.3293279
8,NYA00E194,MEDIUM,BARNIAK FARMS,10667 EAST ROAD,PAVILION,14525,GENESEE,1732,"10667 EAST ROAD, PAVILION, New York, 14525",42.8879441,-78.1116075
8,NYA00E195,MEDIUM,BATAVIA DOWNS,8315 PARK ROAD,BATAVIA,14020,GENESEE,0,"8315 PARK ROAD, BATAVIA, New York, 14020",43.0093748,-78.2051127
8,NYA00E356,LARGE,"PROVITELLO, LLC",5327 WATSON ROAD,ELBA,14058,GENESEE,0,"5327 WATSON ROAD, ELBA, New York, 14058",43.1153845,-78.1250901
8,NYA00E350,LARGE,"CY HEIFER FARMS, LLC",5327 WATSON ROAD,ELBA,14058,GENESEE,6273,"5327 WATSON ROAD, ELBA, New York, 14058",43.1153845,-78.1250901
8,NYA00E184,LARGE,ZUBER FARMS,3846 WESTSIDE DRIVE,CHURCHVILLE,14428,GENESEE,3918,"3846 WESTSIDE DRIVE, CHURCHVILLE, New York, 14428",43.1296589,-77.8569837
8,NYA00E185,LARGE,REYNCREST FARMS,9666 ALLEGHANY ROAD,CORFU,14036,GENESEE,2088,"9666 ALLEGHANY ROAD, CORFU, New York, 14036",42.946101,-78.404064
8,NYA00E186,MEDIUM,MILLER'S SONSHINE ACRES,1765 BROADWAY ROAD,DARIEN CENTER,14040,GENESEE,1699,"1765 BROADWAY ROAD, DARIEN CENTER, New York, 14040",42.9086838,-78.3209219
8,NYA00E075,MEDIUM,UDDERLY BETTER ACRES,8627 VALLANCE ROAD,LEROY,14482,GENESEE,1086,"8627 VALLANCE ROAD, LEROY, New York, 14482",43.0325675,-77.9043428
8,NYA00E133,MEDIUM,PAGEN FARM,8427 GULLY ROAD,LEROY,14482,GENESEE,750,"8427 GULLY ROAD, LEROY, New York, 14482",43.017371,-77.925233
8,NYA00E187,LARGE,HILDENE FARMS,10972 Roanoke ROAD,Wyoming,14591,GENESEE,713,"10972 Roanoke ROAD, Wyoming, New York, 14591",42.882177,-78.055499
8,NYA00E002,LARGE,MAIN FACILITY,9290 YORK ROAD,LEROY,14482,GENESEE,1086,"9290 YORK ROAD, LEROY, New York, 14482",42.961785,-77.922433
8,NYA00E188,LARGE,HY-HOPE FARMS,5908 HORSE SHOE LAKE ROAD,STAFFORD,14143,GENESEE,1660,"5908 HORSE SHOE LAKE ROAD, STAFFORD, New York, 14143",43.0048679,-78.0908457
8,NYA00E029,LARGE,LAMB FARMS,6880 ALBION ROAD,OAKFIELD,14125,GENESEE,9665,"6880 ALBION ROAD, OAKFIELD, New York, 14125",43.0806536,-78.2886178
8,NYA00E401,LARGE,LOR-ROB DAIRY FARM,10171 BETHANY CENTER ROAD,EAST BETHANY,14054,GENESEE,4366,"10171 BETHANY CENTER ROAD, EAST BETHANY, New York, 14054",42.9209827,-78.1328177
8,NYA00E353,LARGE,"OFFHAUS FARMS, INC.",7892 OAK ORCHARD ROAD,BATAVIA,14020,GENESEE,1886,"7892 OAK ORCHARD ROAD, BATAVIA, New York, 14020",43.030204,-78.199451
8,NYA00E189,MEDIUM,BLUMER DIARY,10216 ROUTE 98,ALEXANDER,14005,GENESEE,764,"10216 ROUTE 98, ALEXANDER, New York, 14005",42.4464809,-78.3393944
8,NYA00E190,LARGE,"TORREY FARMS DAIRY, INC.",7360 OAK ORCHARD ROAD,ELBA,14058,GENESEE,3800,"7360 OAK ORCHARD ROAD, ELBA, New York, 14058",43.0572904,-78.1933045
8,NYA00E142,LARGE,ROLL-N-VIEW FARMS,8907 PICKETLINE ROAD,NUNDA,14517,LIVINGSTON,2900,"8907 PICKETLINE ROAD, NUNDA, New York, 14517",42.595835,-77.952018
8,NYA00E145,LARGE,T. JOSEPH SWYERS FARM,9607 KENNEY ROAD,DANSVILLE,14437,LIVINGSTON,3530,"9607 KENNEY ROAD, DANSVILLE, New York, 14437",42.565975,-77.790794
8,NYA00E146,MEDIUM,SELDEN STOKOE & SONS,5328 AVON-EAST AVON ROAD,AVON,14414,LIVINGSTON,796,"5328 AVON-EAST AVON ROAD, AVON, New York, 14414",42.902836,-77.711794
8,NYA00E073,MEDIUM,LEFEBER FARMS,2432 RESERVOIR ROAD,AVON,14414,LIVINGSTON,970,"2432 RESERVOIR ROAD, AVON, New York, 14414",42.875672,-77.752744
8,NYA00E148,MEDIUM,MERRIMAC FARMS,3979 EAST GROVELAND ROAD,MT. MORRIS,14510,LIVINGSTON,1825,"3979 EAST GROVELAND ROAD, MT. MORRIS, New York, 14510",42.7481541,-77.8125989
8,NYA00E344,MEDIUM,GRACELAND DAIRIES,5301 EVERMAN ROAD,DANSVILLE,14437,LIVINGSTON,502,"5301 EVERMAN ROAD, DANSVILLE, New York, 14437",42.6211236,-77.7363486
8,NYA00E153,MEDIUM,CALLAN FARMS,4194 CAMERON RD,CALEDONIA,14423,LIVINGSTON,2600,"4194 CAMERON RD, CALEDONIA, New York, 14423",42.9683873,-77.7899328
8,NYA00E345,MEDIUM,"KYLE FARMS, LLC.",2122 AVON GENESEO ROAD,AVON,14414,LIVINGSTON,1208,"2122 AVON GENESEO ROAD, AVON, New York, 14414",42.902536,-77.774374
8,NYA00E083,MEDIUM,KINGSTON FARMS,5109 GROVELAND ROAD,GENESEO,14454,LIVINGSTON,668,"5109 GROVELAND ROAD, GENESEO, New York, 14454",42.7718351,-77.7866652
8,NYA00E045,LARGE,NOBLEHURST FARMS,1790 STEWART ROAD,PAVILION,14525,LIVINGSTON,2858,"1790 STEWART ROAD, PAVILION, New York, 14525",42.894428,-77.9503983
8,NYA00E126,LARGE,"SPARTA FARMS, LP.",4255 FLATS ROAD,DANSVILLE,14437,LIVINGSTON,4570,"4255 FLATS ROAD, DANSVILLE, New York, 14437",42.6637167,-77.8018362
8,NYA00E351,LARGE,"COYNE FARMS, INC.",5957 AVON-LIMA ROAD,AVON,14414,LIVINGSTON,1910,"5957 AVON-LIMA ROAD, AVON, New York, 14414",42.9046769,-77.6889597
8,NYA00E127,LARGE,LAWNEL FARMS 2,2413 CRAIG ROAD,PIFFARD,14533,LIVINGSTON,2900,"2413 CRAIG ROAD, PIFFARD, New York, 14533",42.8592675,-77.8919657
8,NYA00E352,LARGE,"MULLIGAN FARM, INC.",5403 BARBER ROAD,AVON,14414,LIVINGSTON,2515,"5403 BARBER ROAD, AVON, New York, 14414",42.9356558,-77.7098261
8,NYA00E341,LARGE,DONNAN FARMS,2241 YORK ROAD,YORK,14592,LIVINGSTON,4040,"2241 YORK ROAD, YORK, New York, 14592",42.8722371,-77.9203834
8,NYA00E439,LARGE,MT. MORRIS DAIRY FARMS,7295 BEGOLE ROAD,MT. MORRIS,14510,LIVINGSTON,1833,"7295 BEGOLE ROAD, MT. MORRIS, New York, 14510",42.6711717,-77.8772762
8,NYA00E129,LARGE,STEIN FAMILY FARMS,2494 DE NOON ROAD,CALEDONIA,14423,LIVINGSTON,1725,"2494 DE NOON ROAD, CALEDONIA, New York, 14423",42.948079,-77.900932
8,NYA00E130,LARGE,THORNAPPLE DAIRY,2179 PEORIA ROAD,LEICESTER,14481,LIVINGSTON,1580,"2179 PEORIA ROAD, LEICESTER, New York, 14481",42.806583,-77.921531
8,NYA00E400,MEDIUM,"ERNEST GATES & SONS, LLC",2126 DOW ROAD,PAVILION,14525,LIVINGSTON,1809,"2126 DOW ROAD, PAVILION, New York, 14525",42.8425525,-77.9249687
8,NYA00E342,LARGE,"LA CASA DE LECHE, LLC.",5064 WILSON ROAD,GROVELAND,14462,LIVINGSTON,725,"5064 WILSON ROAD, GROVELAND, New York, 14462",42.692569,-77.742419
8,NYA00E354,LARGE,WALKER FARM,7600 WALKER ROAD,WAYLAND,14572,LIVINGSTON,1280,"7600 WALKER ROAD, WAYLAND, New York, 14572",42.59789,-77.591282
8,NYA00E444,LARGE,"DAIRY KNOLL FARMS, LLC.",4693 ROSEBRUGH ROAD,GENESSEO,14454,LIVINGSTON,3373,"4693 ROSEBRUGH ROAD, GENESSEO, New York, 14454",42.721903,-77.746987
8,NYA00E138,MEDIUM,ANDERSON FARMS DAIRY,2699 POLE BRIDGE ROAD,AVON,14414,LIVINGSTON,795,"2699 POLE BRIDGE ROAD, AVON, New York, 14414",42.8729638,-77.7339305
8,NYA00E076,MEDIUM,PAUL STEIN & SONS,2031 SCOTTSVILLE-MUMFORD ROAD,SCOTTSVILLE,14546,MONROE,1375,"2031 SCOTTSVILLE-MUMFORD ROAD, SCOTTSVILLE, New York, 14546",43.005559,-77.8366835
8,NYA00E078,MEDIUM,LEIBECK FARM,1567 VROOM ROAD,SPENCERPORT,14559,MONROE,808,"1567 VROOM ROAD, SPENCERPORT, New York, 14559",43.1391225,-77.8276683
8,NYA00E077,MEDIUM,"COLBY HOMESTEAD FARM, INC.",263 COLBY STREET,SPENCERPORT,14559,MONROE,1125,"263 COLBY STREET, SPENCERPORT, New York, 14559",43.1772474,-77.8284194
8,NYA00E471,LARGE,HALF DUTCH FARM,2586 STATE ROUTE 488,CLIFTON SPRINGS,14432,ONTARIO,2229,"2586 STATE ROUTE 488, CLIFTON SPRINGS, New York, 14432",42.9213821,-77.1274906
8,NYA00E403,MEDIUM,"PEDERSEN FARMS, INC.",1798 COUNTY ROAD 4,SENECA CASTLE,14547,ONTARIO,1303,"1798 COUNTY ROAD 4, SENECA CASTLE, New York, 14547",42.8869136,-77.0764578
8,NYA00E441,LARGE,HEMDALE FARMS,2801 ORLEANS ROAD,SENECA CASTLE,14547,ONTARIO,2892,"2801 ORLEANS ROAD, SENECA CASTLE, New York, 14547",42.8963379,-77.0974319
8,NYA00E508,MEDIUM,NEDROW FARMS,2819 COUNTY ROAD 4,CLIFTON SPRINGS,14432,ONTARIO,400,"2819 COUNTY ROAD 4, CLIFTON SPRINGS, New York, 14432",42.9010004,-77.1451792
8,NYA00E507,MEDIUM,VINCE DEBOOVER FARM,956 ANSLEY ROAD,GENEVA,14456,SENECA,1407,"956 ANSLEY ROAD, GENEVA, New York, 14456",42.7973275,-77.0186306
8,NYA00E074,MEDIUM,FA-BA FARMS,2916 COOLEY ROAD,CANANDAIGUA,14424,ONTARIO,805,"2916 COOLEY ROAD, CANANDAIGUA, New York, 14424",42.888078,-77.347964
8,NYA00E147,LARGE,FINGER LAKES RACING ASSOCIATION,5857 STATE ROUTE 96,FARMINGTON,14425,ONTARIO,0,"5857 STATE ROUTE 96, FARMINGTON, New York, 14425",42.9707629,-77.3433899
8,NYA00E404,MEDIUM,"PURDY FAMILY FARM, LLC.",1970 SAND HILL ROAD,CANANDAIGUA,14424,ONTARIO,1171,"1970 SAND HILL ROAD, CANANDAIGUA, New York, 14424",42.936151,-77.27448
8,NYA00E315,MEDIUM,HILTON FARMS,3188 COUNTY ROAD #47,CANANDAIGUA,14424,ONTARIO,1224,"3188 COUNTY ROAD #47, CANANDAIGUA, New York, 14424",42.8775293,-77.179743
8,NYA00E128,LARGE,BONNA TERRA FARMS,8800 ROUTES 5 & 20,BLOOMFIELD,14469,ONTARIO,4265,"8800 ROUTES 5 & 20, BLOOMFIELD, New York, 14469",42.9045343,-77.5215179
8,NYA00E317,LARGE,"IVY LAKES DAIRY, LLC",1994 STATE ROUTE 245,STANLEY,14561,ONTARIO,895,"1994 STATE ROUTE 245, STANLEY, New York, 14561",42.8252506,-77.0975863
8,NYA00E132,LARGE,WILLOW BEND FARM,1169 COUNTY ROAD 7,MANCHESTER,14548,ONTARIO,5180,"1169 COUNTY ROAD 7, MANCHESTER, New York, 14548",42.9791342,-77.178015
8,NYA00E318,LARGE,LAWNHURST FARMS,4124 COUNTY ROAD #5,STANLEY,14561,ONTARIO,1750,"4124 COUNTY ROAD #5, STANLEY, New York, 14561",42.8317004,-77.0710351
8,NYA00E466,LARGE,DEBOOVER FAMILY FARMS LLC,1382 COUNTY ROAD 23,PHELPS,14532,ONTARIO,1776,"1382 COUNTY ROAD 23, PHELPS, New York, 14532",42.9169929,-77.0487695
8,NYA00E134,LARGE,SCHUM-ACRES DAIRY OPS,9195 ATLANTA-GARLINGHOUSE ROAD,NAPLES,14512,ONTARIO,4434,"9195 ATLANTA-GARLINGHOUSE ROAD, NAPLES, New York, 14512",42.6038444,-77.4663991
8,NYA00E398,MEDIUM,LIGHTLAND FARMS,3053 DEPEW ROAD,STANLEY,14561,ONTARIO,1339,"3053 DEPEW ROAD, STANLEY, New York, 14561",42.8368415,-77.1585949
8,NYA00E084,MEDIUM,REEDLAND FARMS LLC,905 COUNTY ROAD 27,CLIFTON SPRINGS,14432,ONTARIO,974,"905 COUNTY ROAD 27, CLIFTON SPRINGS, New York, 14432",42.9934797,-77.139623
8,NYA00E135,LARGE,WILL-O-CREST FARMS,817 COUNTY ROAD 27,CLIFTON SPRINGS,14432,ONTARIO,3715,"817 COUNTY ROAD 27, CLIFTON SPRINGS, New York, 14432",42.999236,-77.146564
8,NYA00E136,LARGE,HEIFER HAVEN FARMS,4011 NUMBER NINE ROAD,STANLEY,14561,ONTARIO,1706,"4011 NUMBER NINE ROAD, STANLEY, New York, 14561",42.836721,-77.053637
8,NYA00E503,MEDIUM,LANDMARK FARMS,2607 STATE ROUTE 488,CLIFTON SPRINGS,14432,ONTARIO,576,"2607 STATE ROUTE 488, CLIFTON SPRINGS, New York, 14432",42.9158653,-77.1357755
8,NYA00E467,MEDIUM,"GORHAM DAIRY, LLC",2244 GORHAM ROAD,STANLEY,14561,ONTARIO,835,"2244 GORHAM ROAD, STANLEY, New York, 14561",42.790145,-77.104175
8,NYA00E402,LARGE,"J. MINNS FARMS, LLC.",3379 SENECA CASTLE ROAD,STANLEY,14561,ONTARIO,1449,"3379 SENECA CASTLE ROAD, STANLEY, New York, 14561",42.8682628,-77.0933849
8,NYA00E192,LARGE,"JOHN, MARK, MAUREEN J. TORREY PA",10501 ROOSEVELT HIGHWAY,LYDONVILLE,14098,ORLEANS,3103,"10501 ROOSEVELT HIGHWAY, LYDONVILLE, New York, 14098",43.3468899,-78.4437262
8,NYA00E399,MEDIUM,ORLEANS POVERTY HILL FARM,13646 W. COUNTY HOUSE ROAD,ALBION,14411,ORLEANS,993,"13646 W. COUNTY HOUSE ROAD, ALBION, New York, 14411",43.2185354,-78.2413757
8,NYA00E494,MEDIUM,VAN LIESHOUT FARM,4759 OAK ORCHARD ROAD,ALBION,14411,ORLEANS,961,"4759 OAK ORCHARD ROAD, ALBION, New York, 14411",43.1821984,-78.1940031
8,NYA00E440,LARGE,BERGEN FARMS,4060 BERGEN ROAD,ODESSA,14869,SCHUYLER,6338,"4060 BERGEN ROAD, ODESSA, New York, 14869",42.4305075,-76.7463988
8,NYA00E468,LARGE,SENECA VALLEY FARM,3580 COUNTY ROUTE 9,BURDETT,14818,SCHUYLER,2550,"3580 COUNTY ROUTE 9, BURDETT, New York, 14818",42.4084032,-76.8465798
8,NYA00E020,MEDIUM,"GAIGE FARMS,INC.",3736 COUNTY ROUTE 6,ALPINE,14805,SCHUYLER,1272,"3736 COUNTY ROUTE 6, ALPINE, New York, 14805",42.4057998,-76.7113726
8,NYA00E322,MEDIUM,MILLBROOK FARM,4126 MACDOUGAL ROAD,WATERLOO,13165,SENECA,92,"4126 MACDOUGAL ROAD, WATERLOO, New York, 13165",42.8247589,-76.8808587
8,NYA00E323,MEDIUM,LAMAR MARTIN,4801 STATE ROUTE 96,ROMULUS,14541,SENECA,94,"4801 STATE ROUTE 96, ROMULUS, New York, 14541",42.7921986,-76.8396385
8,NYA00E056,MEDIUM,MAYBURY WAYKEN UP CATTLE. LLC,8259 NEELEY ROAD,LODI,14860,SENECA,2078,"8259 NEELEY ROAD, LODI, New York, 14860",42.614389,-76.8033813
8,NYA00E325,MEDIUM,LARRY MARTIN,1992 STATE ROUTE 336,ROMULUS,14541,SENECA,283,"1992 STATE ROUTE 336, ROMULUS, New York, 14541",42.8080723,-76.8339811
8,NYA00E484,MEDIUM,SENECA RIDGE LLC,4186 RIDGE ROAD,SENECA FALLS,13148,SENECA,83,"4186 RIDGE ROAD, SENECA FALLS, New York, 13148",42.8212655,-76.8006634
8,NYA00E469,MEDIUM,CANOGA SPRING FARMS,3404 SEYBOLT ROAD,SENECA FALLS,13148,SENECA,681,"3404 SEYBOLT ROAD, SENECA FALLS, New York, 13148",42.862473,-76.769581
8,NYA00E141,LARGE,LISMORE DAIRY,8545 CANASERAGA ROAD,ARKPORT,14807,STEUBEN,2920,"8545 CANASERAGA ROAD, ARKPORT, New York, 14807",42.4137947,-77.7172866
8,NYA00E143,LARGE,SMITH'S STOCK FARM,7052 SMITH ROAD,HORNELL,14843,STEUBEN,1654,"7052 SMITH ROAD, HORNELL, New York, 14843",42.3437089,-77.5774329
8,NYA00E144,LARGE,LENT HILL DAIRY FARM,10799 EDMOND ROAD,COHOCTON,14826,STEUBEN,2526,"10799 EDMOND ROAD, COHOCTON, New York, 14826",42.5258938,-77.4389459
8,NYA00E324,MEDIUM,BURNS FAMILY FARM,7731 ROSE HILL ROAD,HORNELL,14843,STEUBEN,1402,"7731 ROSE HILL ROAD, HORNELL, New York, 14843",42.3847383,-77.576791
8,NYA00E018,MEDIUM,BLUEGILL FARMS,7400 COUNTY ROUTE 13,BATH,14810,STEUBEN,890,"7400 COUNTY ROUTE 13, BATH, New York, 14810",43.660249,-75.965272
8,NYA00E326,LARGE,STONY BROOK FARM,80 RILEY ROAD,REXVILLE,14877,STEUBEN,175,"80 RILEY ROAD, REXVILLE, New York, 14877",42.0041592,-77.7208267
8,NYA00E343,MEDIUM,CROOKERCREST DAIRY,3152 JOHN RIAL ROAD,ADDISON,14801,STEUBEN,1074,"3152 JOHN RIAL ROAD, ADDISON, New York, 14801",42.148162,-77.230537
8,NYA00E149,LARGE,KARR DAIRY FARMS,1451 DENNIS ROAD,HORNELL,14843,STEUBEN,1170,"1451 DENNIS ROAD, HORNELL, New York, 14843",42.375235,-77.652959
8,NYA00E150,LARGE,WILKINS DAIRY FARM,5811 UNIONVILLE ROAD,BATH,14810,STEUBEN,2380,"5811 UNIONVILLE ROAD, BATH, New York, 14810",42.3060517,-77.3924982
8,NYA00E028,LARGE,"J.P. SWINE ENTERPRISES, LLC",5755 WAGNER HILL ROAD,AVOCA,14809,STEUBEN,680,"5755 WAGNER HILL ROAD, AVOCA, New York, 14809",42.4570077,-77.3778162
8,NYA00E151,LARGE,WHITESVILLE POULTRY,390 COUNTY ROUTE 124,REXVILLE,14877,STEUBEN,0,"390 COUNTY ROUTE 124, REXVILLE, New York, 14877",43.2851769,-76.6613541
8,NYA00E152,LARGE,GILSON FARMS,11068 ROUTE 371,COHOCTON,14826,STEUBEN,807,"11068 ROUTE 371, COHOCTON, New York, 14826",42.5350353,-77.4697193
8,NYA00E043,MEDIUM,L.H. BRIGGS,8182 BRIGGS ROAD,ARKPORT,14807,STEUBEN,983,"8182 BRIGGS ROAD, ARKPORT, New York, 14807",42.396245,-77.662756
8,NYA00E154,MEDIUM,MEHLENBACHER FARMS,10782 ROUTE 21,WAYLAND,14572,STEUBEN,450,"10782 ROUTE 21, WAYLAND, New York, 14572",42.5266452,-77.5761394
8,NYA00E030,MEDIUM,DWI-BET FARMS,3243 MOSE ROAD,ADDISON,14801,STEUBEN,793,"3243 MOSE ROAD, ADDISON, New York, 14801",42.1576794,-77.2173627
8,NYA00E033,LARGE,DAMIN FARM,10926 FAIRGROUNDS ROAD,PRATTSBURGH,14873,STEUBEN,4046,"10926 FAIRGROUNDS ROAD, PRATTSBURGH, New York, 14873",42.5400081,-77.2763809
8,NYA00E011,MEDIUM,PALMER FARMS,7139 PALMER ROAD,HORNELL,14843,STEUBEN,1240,"7139 PALMER ROAD, HORNELL, New York, 14843",42.3470819,-77.5396931
8,NYA00E446,MEDIUM,LEO DICKSON & SONS,5226 BONNY HILL ROAD,BATH,14810,STEUBEN,2250,"5226 BONNY HILL ROAD, BATH, New York, 14810",42.2899356,-77.3280624
8,NYA00E319,LARGE,ROLA FARMS,114 SAUNDERS ROAD,REXVILLE,14877,STEUBEN,1490,"114 SAUNDERS ROAD, REXVILLE, New York, 14877",42.0083598,-77.6540996
8,NYA00E137,LARGE,DUNLEA DAIRY FARM,3545 JACKSON HILL ROAD,CAMERON,14819,STEUBEN,1940,"3545 JACKSON HILL ROAD, CAMERON, New York, 14819",42.169764,-77.422708
8,NYA00E321,MEDIUM,HENDEE HOMESTEAD FARM,8075 STATE ROUTE 21,HORNELL,14843,STEUBEN,893,"8075 STATE ROUTE 21, HORNELL, New York, 14843",42.3934091,-77.6336464
8,NYA00E139,MEDIUM,MAPLE LAWN DAIRY,7868 WEST ALLOWAY ROAD,LYONS,14489,WAYNE,12005,"7868 WEST ALLOWAY ROAD, LYONS, New York, 14489",43.0217302,-76.9822609
8,NYA00E472,LARGE,"EL-VI FARMS, LLC.",14 PELIS ROAD,NEWARK,14513,WAYNE,3396,"14 PELIS ROAD, NEWARK, New York, 14513",43.0015007,-77.1005766
8,NYA00E032,MEDIUM,MARSHALL FARMS GROUP LTD.,5800 LAKE BLUFF ROAD,NORTH ROSE,14516,WAYNE,0,"5800 LAKE BLUFF ROAD, NORTH ROSE, New York, 14516",43.212184,-76.902064
8,NYA00E327,MEDIUM,CORNER VIEW DAIRY,6125 LIND ROAD,LYONS,14489,WAYNE,995,"6125 LIND ROAD, LYONS, New York, 14489",43.1188397,-76.9567157
8,NYA00E328,MEDIUM,DARYL HURST,4772 WESTBURY ROAD,RED CREEK,13143,WAYNE,0,"4772 WESTBURY ROAD, RED CREEK, New York, 13143",43.1832,-76.714994
8,NYA00E330,MEDIUM,RYAN ZIMMERMAN,5079 BROWN ROAD,NORTH ROSE,14516,WAYNE,194,"5079 BROWN ROAD, NORTH ROSE, New York, 14516",43.1884943,-76.8677538
8,NYA00E405,MEDIUM,ROSE VIEW DAIRY,9586 GOBBLERS KNOB ROAD,CLYDE,14433,WAYNE,844,"9586 GOBBLERS KNOB ROAD, CLYDE, New York, 14433",43.1409237,-76.923269
8,NYA00E044,MEDIUM,AMEELE FARMS LLC.,4552 HALL CENTER ROAD,WALWORTH,14568,WAYNE,1020,"4552 HALL CENTER ROAD, WALWORTH, New York, 14568",43.169963,-77.247108
8,NYA00E316,LARGE,RUTT FARMS,3609 PETERS ROAD,SAVANNAH,13146,WAYNE,729,"3609 PETERS ROAD, SAVANNAH, New York, 13146",43.1387379,-76.721655
8,NYA00E035,LARGE,"MERRELL DAIRY, LLC",5015 ROUTE 89,WOLCOTT,14590,WAYNE,3958,"5015 ROUTE 89, WOLCOTT, New York, 14590",43.1855466,-76.7973275
8,NYA00E320,LARGE,WAYNE COUNTY EGGS,6864 WADSWORTH RD,WOLCOTT,14590,WAYNE,1764,"6864 WADSWORTH RD, WOLCOTT, New York, 14590",43.249446,-76.794759
8,NYA00E239,MEDIUM,VAUGHAN FARMS LLC,781 PAYNE ROAD,PENN YAN,14527,YATES,973,"781 PAYNE ROAD, PENN YAN, New York, 14527",42.730936,-77.11218
8,NYA00E238,MEDIUM,OSWALD FARMS,3478 OSWALD ROAD,PENN YAN,14527,YATES,765,"3478 OSWALD ROAD, PENN YAN, New York, 14527",42.740943,-77.135934
9,NYA00E475,MEDIUM,BRANDES FARM,2465 VORHEES HILL ROAD,WELLSVILLE,14895,ALLEGANY,1440,"2465 VORHEES HILL ROAD, WELLSVILLE, New York, 14895",42.101435,-77.8788766
9,NYA00E161,MEDIUM,HILLCREST HOMSTEAD,9020 TAYLOR HILL ROAD,CANEADEA,14717,ALLEGANY,1332,"9020 TAYLOR HILL ROAD, CANEADEA, New York, 14717",42.3645494,-78.2532657
9,NYA00E383,LARGE,MAYLINE FARMS,41 FITZSTEVENS ROAD,WELLSVILLE,14895,ALLEGANY,521,"41 FITZSTEVENS ROAD, WELLSVILLE, New York, 14895",42.0013413,-77.9244732
9,NYA00E163,MEDIUM,T.L. HODNETT FARMS,11945 WISCOY ROAD,PORTAGEVILLE,14536,ALLEGANY,430,"11945 WISCOY ROAD, PORTAGEVILLE, New York, 14536",42.50755,-78.0898484
9,NYA00E479,MEDIUM,RAW FARM,333 GRANTIER ROAD,WHITESVILLE,14897,ALLEGANY,505,"333 GRANTIER ROAD, WHITESVILLE, New York, 14897",42.0579903,-77.7563352
9,NYA00E480,MEDIUM,BARNEY FARM,1454 CASEY ROAD,WELLSVILLE,14895,ALLEGANY,810,"1454 CASEY ROAD, WELLSVILLE, New York, 14895",42.0690332,-77.821818
9,NYA00E481,MEDIUM,PONDEROSA FARM,4321 COUNTY ROAD 15A,ANGELICA,14709,ALLEGANY,645,"4321 COUNTY ROAD 15A, ANGELICA, New York, 14709",42.423725,-77.9754264
9,NYA00E155,MEDIUM,VAL DALE FARMS,3929 ROUTE 275,FRIENDSHIP,14739,ALLEGANY,1156,"3929 ROUTE 275, FRIENDSHIP, New York, 14739",42.168995,-78.139375
9,NYA00E157,MEDIUM,BENNETT BROTHERS FARM,4498 ENGLISH HILL ROAD,DALTON,14836,ALLEGANY,737,"4498 ENGLISH HILL ROAD, DALTON, New York, 14836",42.4523836,-77.9863667
9,NYA00E159,MEDIUM,BEHEN FARM,9305 COUNCIL HOUSE ROAD,CANEADEA,14717,ALLEGANY,343,"9305 COUNCIL HOUSE ROAD, CANEADEA, New York, 14717",42.4086836,-78.1502849
9,NYA00E382,LARGE,BAINBRIDGE FARM,3059 COUNTY ROUTE 2A,ALMOND,14804,ALLEGANY,2849,"3059 COUNTY ROUTE 2A, ALMOND, New York, 14804",42.3307877,-77.932211
9,NYA00E368,MEDIUM,"BLISS DAIRY COMPANY, INC.",10365 MAPLE GROVE ROAD,DELEVAN,14042,CATTARAUGUS,1300,"10365 MAPLE GROVE ROAD, DELEVAN, New York, 14042",42.454077,-78.399004
9,NYA00E218,LARGE,MALLARDS DAIRY,7391 RAWSON ROAD,CUBA,14727,CATTARAUGUS,5254,"7391 RAWSON ROAD, CUBA, New York, 14727",42.3238692,-78.3092106
9,NYA00E371,MEDIUM,PIMM'S VIEW FARM,6266 WEST ROAD,CONEWANGO VAELLEY,14726,CATTARAUGUS,766,"6266 WEST ROAD, CONEWANGO VAELLEY, New York, 14726",42.272508,-79.045014
9,NYA00E246,MEDIUM,"COLONIAL HILL FARM, LLC.",8038 MOSHER HOLLOW ROAD,CATTARAUGUS,14719,CATTARAUGUS,350,"8038 MOSHER HOLLOW ROAD, CATTARAUGUS, New York, 14719",42.350752,-78.950421
9,NYA00E065,MEDIUM,"EDEN VALLEY ORGANICS, LLC",7906 ROUTE 62,SOUTH DAYTON,14138,CATTARAUGUS,3000,"7906 ROUTE 62, SOUTH DAYTON, New York, 14138",42.342761,-79.01658
9,NYA00E066,MEDIUM,"NICHOLS FARM, LLC.",220 ROUTE 243,FARMSVILLE STATION,14060,CATTARAUGUS,700,"220 ROUTE 243, FARMSVILLE STATION, New York, 14060",42.4366228,-78.317441
9,NYA00E197,LARGE,EDELWEISS FARMS,10826 OSMUM ROAD,FREEDOM,14065,WYOMING,4060,"10826 OSMUM ROAD, FREEDOM, New York, 14065",42.4727397,-78.3372482
9,NYA00E067,MEDIUM,TELAAK FARMS LLC,7301 HINMAN ROAD,LITTLE VALLEY,14755,CATTARAUGUS,1066,"7301 HINMAN ROAD, LITTLE VALLEY, New York, 14755",42.3455115,-78.7357557
9,NYA00E362,LARGE,"BEAVERS DAIRY FARM, LLC.",3785 KIRK ROAD,RANDOLPH,14772,CATTARAUGUS,2000,"3785 KIRK ROAD, RANDOLPH, New York, 14772",42.1651513,-79.0448679
9,NYA00E062,MEDIUM,BLESY FARMS LLC,7129 HENRIETTA ROAD,SPRINGVILLE,14141,CATTARAUGUS,454,"7129 HENRIETTA ROAD, SPRINGVILLE, New York, 14141",42.472491,-78.731088
9,NYA00E364,LARGE,"SCHWAB DAIRY FARM, LLC.",10090 PIGEON HILL ROAD,DELEVAN,14042,CATTARAUGUS,2000,"10090 PIGEON HILL ROAD, DELEVAN, New York, 14042",42.4354412,-78.4243578
9,NYA00E365,LARGE,"C & J DAIRY FARMS, INC.",10051 HOOPER ROAD,DELEVAN,14042,CATTARAUGUS,1000,"10051 HOOPER ROAD, DELEVAN, New York, 14042",42.4892295,-78.4808534
9,NYA00E366,LARGE,"R & D ADAMS DAIRY FARMS, LLC.",4244 ELM CREEK ROAD,RANDOLPH,14772,CATTARAUGUS,2000,"4244 ELM CREEK ROAD, RANDOLPH, New York, 14772",42.1821399,-78.949385
9,NYA00E245,MEDIUM,"R & D CROWELL FARM, LLC",1414 CASSADAGA-HAMLET ROAD,SOUTH DAYTON,14138,CHAUTAUQUA,1200,"1414 CASSADAGA-HAMLET ROAD, SOUTH DAYTON, New York, 14138",42.3615832,-79.1868003
9,NYA00E369,LARGE,NOBLES FARM,7690 ROUTE 83,SOUTH DAYTON,14138,CHAUTAUQUA,2000,"7690 ROUTE 83, SOUTH DAYTON, New York, 14138",42.3479615,-79.0898142
9,NYA00E247,LARGE,"RELIANCE DAIRY, LLC.",3712 PELTON ROAD,SHERMAN,14781,CHAUTAUQUA,1471,"3712 PELTON ROAD, SHERMAN, New York, 14781",42.1611011,-79.6410241
9,NYA00E248,MEDIUM,J-HIGH ACRES,287 ROBBIN HILL ROAD,FREWSBURG,14738,CHAUTAUQUA,891,"287 ROBBIN HILL ROAD, FREWSBURG, New York, 14738",42.046039,-79.118511
9,NYA00E068,MEDIUM,WALLACE FARMS,64 NEW BUFFALO ROAD,CLYMER,14724,CHAUTAUQUA,934,"64 NEW BUFFALO ROAD, CLYMER, New York, 14724",42.0028779,-79.7034351
9,NYA00E249,MEDIUM,"GRAPE VIEW DAIRY, LLC",7314 PROSPECT ROAD,WESTFIELD,14787,CHAUTAUQUA,538,"7314 PROSPECT ROAD, WESTFIELD, New York, 14787",42.336145,-79.535078
9,NYA00E064,MEDIUM,4 JACKS DAIRY LLC,1852 MANN ROAD,CLYMER,14724,CHAUTAUQUA,1084,"1852 MANN ROAD, CLYMER, New York, 14724",42.0761988,-79.7313547
9,NYA00E060,MEDIUM,CHAUTAUQUA HILLTOP ORGANIC LLC,7253 BOWERS ROAD,CASSADAGA,14718,CHAUTAUQUA,3000,"7253 BOWERS ROAD, CASSADAGA, New York, 14718",42.3166402,-79.3245501
9,NYA00E509,MEDIUM,"CABHI FARM, LLC.",9168 ROUTE 474,CLYMER,14724,CHAUTAUQUA,1061,"9168 ROUTE 474, CLYMER, New York, 14724",42.022564,-79.664169
9,NYA00E061,MEDIUM,"DUNNEWOLD FARMS, LLC",9614 ROUTE 474,CLYMER,14724,CHAUTAUQUA,553,"9614 ROUTE 474, CLYMER, New York, 14724",42.024261,-79.6850931
9,NYA00E241,MEDIUM,"SOUTHERN TIER ORGANICS, LLC",2103 THORTON ROAD,SINCLAIRVILLE,14782,CHAUTAUQUA,1500,"2103 THORTON ROAD, SINCLAIRVILLE, New York, 14782",42.2822363,-79.201431
9,NYA00E361,LARGE,"COUNTRY AYRE FARMS, LLC.",5686 CENTRALIA-HARTFIELD ROAD,DEWITTVILLE,14728,CHAUTAUQUA,1600,"5686 CENTRALIA-HARTFIELD ROAD, DEWITTVILLE, New York, 14728",42.265276,-79.428863
9,NYA00E069,MEDIUM,"WILLINK FARMS, LLC",9935 RAVLIN HILL ROAD,CLYMER,14724,CHAUTAUQUA,758,"9935 RAVLIN HILL ROAD, CLYMER, New York, 14724",42.051743,-79.708795
9,NYA00E242,LARGE,ODELL FARMS,422 WILLETTS ROAD,PANAMA,14767,CHAUTAUQUA,1516,"422 WILLETTS ROAD, PANAMA, New York, 14767",42.0218004,-79.463562
9,NYA00E036,LARGE,"SCHOFIELD FARMS, LLC",10241 ROUTE 430,FINDLEY LAKE,14736,CHAUTAUQUA,2621,"10241 ROUTE 430, FINDLEY LAKE, New York, 14736",42.12144,-79.724608
9,NYA00E243,MEDIUM,"LINDELL NY FARMS, LLC",3836 NUTT ROAD,JAMESTOWN,14701,CHAUTAUQUA,835,"3836 NUTT ROAD, JAMESTOWN, New York, 14701",42.0351662,-79.3059152
9,NYA00E367,MEDIUM,"RIDGELINE FARM, LLC.",439 LEGTERS ROAD,CLYMER,14724,CHAUTAUQUA,1318,"439 LEGTERS ROAD, CLYMER, New York, 14724",42.0195152,-79.6449252
9,NYA00E244,MEDIUM,MARK R. MANSFIELD LLC,7645 FARRINGTON HOLLOW,CHERRY CREEK,14723,CHAUTAUQUA,500,"7645 FARRINGTON HOLLOW, CHERRY CREEK, New York, 14723",42.326429,-79.1642456
9,NYA00E063,LARGE,"ROLLING MEADOWS FARM, LLC",3011 GENESEE ROAD,LAWTONS,14091,ERIE,1400,"3011 GENESEE ROAD, LAWTONS, New York, 14091",42.551129,-78.883293
9,NYA00E370,LARGE,"PHILLIPS FAMILY FARM, INC.",1809 BRANT ROAD,NORTH COLLINS,14111,ERIE,1419,"1809 BRANT ROAD, NORTH COLLINS, New York, 14111",42.5965063,-78.9467703
9,NYA00E220,MEDIUM,KRAMER FARMS,11093 HOLLAND GLENWOOD ROAD,HOLLAND,14080,ERIE,1432,"11093 HOLLAND GLENWOOD ROAD, HOLLAND, New York, 14080",42.6277512,-78.5753762
9,NYA00E223,MEDIUM,G.C. ACRES,2598 TWO ROD ROAD,EAST AURORA,14052,ERIE,1013,"2598 TWO ROD ROAD, EAST AURORA, New York, 14052",42.8156903,-78.5552086
9,NYA00E227,MEDIUM,BUFFALO TROTTING ASSOCIATION,5600 MCKINLEY PARKWAY,HAMBURG,14075,ERIE,0,"5600 MCKINLEY PARKWAY, HAMBURG, New York, 14075",42.7361037,-78.8129216
,NYA00E513,MEDIUM,HAPPY HOLLOW DAIRY FARM LLC.,11290 WYANDALE ROAD,SPRINGVILLE,14141,ERIE,715,"11290 WYANDALE ROAD, SPRINGVILLE, New York, 14141",42.5758374,-78.770117
9,NYA00E360,LARGE,PREISCHEL FARMS INC,2988 BELKNAP ROAD,EDEN,14057,ERIE,1450,"2988 BELKNAP ROAD, EDEN, New York, 14057",42.684814,-78.880473
9,NYA00E357,LARGE,"KREHER'S FARM FRESH EGGS, LLC.",5411 DAVISON ROAD,CLARENCE,14031,ERIE,4087,"5411 DAVISON ROAD, CLARENCE, New York, 14031",42.9922044,-78.5764649
9,NYA00E358,LARGE,"PALMER  DAIRY FARMS, LLC.",10089 WARNER GULF ROAD,HOLLAND,14080,ERIE,2092,"10089 WARNER GULF ROAD, HOLLAND, New York, 14080",42.6052703,-78.5497814
9,NYA00E363,LARGE,"EDEN VALLEY DAIRY, LLC.",3940 HARDT ROAD,EDEN,14057,ERIE,2200,"3940 HARDT ROAD, EDEN, New York, 14057",42.67078,-78.838789
9,NYA00E217,MEDIUM,VERRATTI FARMS,8651 SLAYTON SETTLEMENT ROAD,GASPORT,14067,NIAGARA,2804,"8651 SLAYTON SETTLEMENT ROAD, GASPORT, New York, 14067",43.2074686,-78.5564401
9,NYA00E221,MEDIUM,DACODA DAIRY,3448 STONE ROAD,MIDDLEPORT,14105,NIAGARA,1391,"3448 STONE ROAD, MIDDLEPORT, New York, 14105",43.241295,-78.471959
9,NYA00E224,LARGE,"CHAFFEE FARMS, LLC.",9849 LAKE ROAD,BARKER,14012,NIAGARA,2076,"9849 LAKE ROAD, BARKER, New York, 14012",43.346652,-78.4661586
9,NYA00E228,LARGE,ATWATER FARMS,9676 LOWER LAKE ROAD,BARKER,14012,NIAGARA,1638,"9676 LOWER LAKE ROAD, BARKER, New York, 14012",43.369054,-78.522763
9,NYA00E347,MEDIUM,"J J SMITH FARMS, LLC.",8829 DALE ROAD,GASPORT,14067,NIAGARA,1177,"8829 DALE ROAD, GASPORT, New York, 14067",43.180045,-78.5369319
9,NYA00E236,MEDIUM,WILL'S DAIRY FARM,2157 BRALEY ROAD,RANSOMVILLE,14131,NIAGARA,822,"2157 BRALEY ROAD, RANSOMVILLE, New York, 14131",43.2547987,-78.9369342
9,NYA00E201,LARGE,MCCOLLUM FARMS,7553 SLAYTON SETTLEMENT ROAD,GASPORT,14067,NIAGARA,6431,"7553 SLAYTON SETTLEMENT ROAD, GASPORT, New York, 14067",43.2066856,-78.6160158
9,NYA00E210,LARGE,"LAKESHORE DAIRY, LLC",3071 WILSON-YOUNGSTOWN ROAD,WILSON,14172,NIAGARA,1979,"3071 WILSON-YOUNGSTOWN ROAD, WILSON, New York, 14172",43.2896549,-78.8741326
9,NYA00E212,LARGE,GASPORT VIEW DAIRY FARMS,8600 MOUNTAIN ROAD,GASPORT,14067,NIAGARA,1324,"8600 MOUNTAIN ROAD, GASPORT, New York, 14067",43.1954228,-78.5571231
9,NYA00E380,LARGE,GARDEAU CREST FARM,4326 MIDDLE RESERVATION ROAD,PERRY,14530,WYOMING,3172,"4326 MIDDLE RESERVATION ROAD, PERRY, New York, 14530",42.6822664,-77.9961084
9,NYA00E215,MEDIUM,DAN PINGREY FARM,777 PERRY ROAD,STRYKERSVILLE,14145,WYOMING,708,"777 PERRY ROAD, STRYKERSVILLE, New York, 14145",42.707379,-78.432654
9,NYA00E216,LARGE,TRUE FARMS,3086 ROUTE 246,PERRY,14536,WYOMING,1170,"3086 ROUTE 246, PERRY, New York, 14536",42.7361178,-78.0060483
9,NYA00E442,MEDIUM,DAVIS VALLEY FARM,3007 WEST HILL ROAD,BLISS,14024,WYOMING,523,"3007 WEST HILL ROAD, BLISS, New York, 14024",42.601655,-78.2802171
9,NYA00E406,LARGE,"SCHREIBERDALE HOLSTEINS, LLC",4642 MIDDLE RESERVATION ROAD,PERRY,14530,WYOMING,1391,"4642 MIDDLE RESERVATION ROAD, PERRY, New York, 14530",42.666823,-78.007834
9,NYA00E476,MEDIUM,ROBBIEHILL DAIRY FARM,1480 TORREY HILL ROAD,JAVA CENTER,14082,WYOMING,1204,"1480 TORREY HILL ROAD, JAVA CENTER, New York, 14082",42.6445444,-78.3787478
9,NYA00E219,MEDIUM,LUCE DIARY FARMS,2851 GULF ROAD,VARYSBURG,14167,WYOMING,797,"2851 GULF ROAD, VARYSBURG, New York, 14167",42.7247429,-78.288732
9,NYA00E015,LARGE,"RED MAPLES DAIRY, LLC",3512 EAST MAIN STREET RD,ATTICA,14011,WYOMING,3150,"3512 EAST MAIN STREET RD, ATTICA, New York, 14011",42.8591821,-78.2487081
9,NYA00E359,LARGE,"SOUTHVIEW DAIRY, LLC - MAXWELL FACILITY",5746 MAXWELL ROAD,BLISS,14024,WYOMING,6110,"5746 MAXWELL ROAD, BLISS, New York, 14024",42.6178071,-78.2805715
9,NYA00E225,MEDIUM,"SREGNUOY FARM, LLC.",4433 YOUNGERS ROAD,NORTH JAVA,14113,WYOMING,825,"4433 YOUNGERS ROAD, NORTH JAVA, New York, 14113",42.6788668,-78.3218768
9,NYA00E226,LARGE,WOODVALE FARMS,6935 BURKE HILL ROAD,PERRY,14530,WYOMING,1124,"6935 BURKE HILL ROAD, PERRY, New York, 14530",42.781871,-78.023237
9,NYA00E162,MEDIUM,PEILA HOLSTEINS,7420 LAGRANGE ROAD,PERRY,14530,WYOMING,0,"7420 LAGRANGE ROAD, PERRY, New York, 14530",42.8015597,-78.0063768
9,NYA00E229,LARGE,BLISS CATTLE COMPANY,6991 MCELROY ROAD,BLISS,14024,WYOMING,1440,"6991 MCELROY ROAD, BLISS, New York, 14024",42.55963,-78.2658639
9,NYA00E230,MEDIUM,BROUGHTON DIVERSIFIED FARMING,3853 SILVER SPRINGS ROAD,SILVER SPRINGS,14550,WYOMING,537,"3853 SILVER SPRINGS ROAD, SILVER SPRINGS, New York, 14550",42.702374,-78.081541
9,NYA00E231,MEDIUM,MAPLE RIDGE FARMS,2436 MCCORMICK ROAD,NORTH JAVA,14113,WYOMING,565,"2436 MCCORMICK ROAD, NORTH JAVA, New York, 14113",42.618277,-78.321978
9,NYA00E232,LARGE,BROUGHTON FARM OPERATION,5622 BROUGHTON ROAD,SILVER SPRINGS,14550,WYOMING,5086,"5622 BROUGHTON ROAD, SILVER SPRINGS, New York, 14550",42.658159,-78.111526
9,NYA00E234,MEDIUM,CO-VISTA HOLSTEINS,320 GENESEE ROAD,ARCADE,14009,WYOMING,980,"320 GENESEE ROAD, ARCADE, New York, 14009",42.548946,-78.461462
9,NYA00E235,MEDIUM,HARKINS DAIRY FARM,328 TRANSIT ROAD,WYOMING,14591,WYOMING,737,"328 TRANSIT ROAD, WYOMING, New York, 14591",42.8663,-78.076004
9,NYA00E348,MEDIUM,"EAST HILL FARM, LLC.",5840 ROUTE 20A,WARSAW,14569,WYOMING,1088,"5840 ROUTE 20A, WARSAW, New York, 14569",42.7448449,-78.0977771
9,NYA00E237,MEDIUM,CONRAD FARMS,5041 YOUNGERS ROAD,NORTH JAVA,14113,WYOMING,864,"5041 YOUNGERS ROAD, NORTH JAVA, New York, 14113",42.6484669,-78.302362
9,NYA00E482,MEDIUM,R.L. JEFFRES,510 WYOMING ROAD,WYOMING,14591,WYOMING,2025,"510 WYOMING ROAD, WYOMING, New York, 14591",42.8550702,-78.0430148
9,NYA00E346,LARGE,"SOUTHVIEW FARMS, LLC",5073 UPPER RESERVATION ROAD,CASTILE,14427,WYOMING,4068,"5073 UPPER RESERVATION ROAD, CASTILE, New York, 14427",42.643694,-78.013957
9,NYA00E376,LARGE,TABLE ROCK FARM,5428 UPPER RESERVATION ROAD,CASTILE,14427,WYOMING,1630,"5428 UPPER RESERVATION ROAD, CASTILE, New York, 14427",42.632049,-78.023019
9,NYA00E196,LARGE,EMERLING FARMS,2923 ROUTE 246,PERRY,14536,WYOMING,1705,"2923 ROUTE 246, PERRY, New York, 14536",42.7428646,-78.0056038
9,NYA00E377,LARGE,HIGHBANKS DAIRY,3840 SLOCUM ROAD,PERRY,14530,WYOMING,2276,"3840 SLOCUM ROAD, PERRY, New York, 14530",42.700818,-77.980661
9,NYA00E198,LARGE,"SWISS VALLEY FARMS, LLC.",3495 BUCK ROAD,WARSAW,14569,WYOMING,2976,"3495 BUCK ROAD, WARSAW, New York, 14569",42.7167076,-78.1606741
9,NYA00E378,LARGE,PANKOW FARM,5808 GLEN IRIS ROAD,CASTILE,14427,WYOMING,1352,"5808 GLEN IRIS ROAD, CASTILE, New York, 14427",42.6170268,-78.0460242
9,NYA00E199,LARGE,DZIEDZIC FARMS,6884 YOUNGERS ROAD,BLISS,14024,WYOMING,2135,"6884 YOUNGERS ROAD, BLISS, New York, 14024",42.569251,-78.3167896
9,NYA00E200,MEDIUM,"FONTAINE FARMS, LLC.",3325 BARTZ ROAD,STRYKERSVILLE,14145,WYOMING,563,"3325 BARTZ ROAD, STRYKERSVILLE, New York, 14145",42.7223865,-78.4171122
9,NYA00E156,LARGE,OLD ACRE FARM,7863 STATE ROUTE 39,PERRY,14530,WYOMING,2600,"7863 STATE ROUTE 39, PERRY, New York, 14530",42.73195,-77.962903
9,NYA00E202,LARGE,FLINT'S DAIRY FARM,3992 ROUTE 20A,WARSAW,14569,WYOMING,1792,"3992 ROUTE 20A, WARSAW, New York, 14569",42.748013,-78.217049
9,NYA00E203,LARGE,"SYNERGY, LLC",6534 LEMLY ROAD,WYOMING,14591,WYOMING,11094,"6534 LEMLY ROAD, WYOMING, New York, 14591",42.8283441,-78.0520634
9,NYA00E379,MEDIUM,ARMSON FARMS,1091 PEORIA ROAD,PAVILION,14525,WYOMING,1488,"1091 PEORIA ROAD, PAVILION, New York, 14525",42.8216854,-77.9700279
9,NYA00E204,LARGE,BREEZYHILL DAIRY,2705 N. SHELDON ROAD,STRYKERSVILLE,14145,WYOMING,1944,"2705 N. SHELDON ROAD, STRYKERSVILLE, New York, 14145",42.7491609,-78.4181799
9,NYA00E205,MEDIUM,BOWHILL FARMS,6670 LAGRANGE ROAD,WYOMING,14591,WYOMING,1222,"6670 LAGRANGE ROAD, WYOMING, New York, 14591",42.8014995,-78.0329232
9,NYA00E206,LARGE,HI-LAND FARMS,5509 FOX ROAD,WYOMING,14591,WYOMING,1454,"5509 FOX ROAD, WYOMING, New York, 14591",42.8157056,-78.1160486
9,NYA00E207,MEDIUM,FRIENDLY ACRES FARM,1458 EXCHANGE STREET ROAD,ATTICA,14011,WYOMING,920,"1458 EXCHANGE STREET ROAD, ATTICA, New York, 14011",42.811068,-78.2644112
9,NYA00E208,MEDIUM,LOGWELL ARCES,7588 BIG TREE ROAD,PAVILION,14525,WYOMING,319,"7588 BIG TREE ROAD, PAVILION, New York, 14525",42.8447716,-77.9799643
9,NYA00E209,MEDIUM,"PINGREY FARM 2, LLC.",6583 ABBOTT ROAD,SILVER SPRINGS,14550,WYOMING,719,"6583 ABBOTT ROAD, SILVER SPRINGS, New York, 14550",42.7029128,-78.0468847
9,NYA00E160,MEDIUM,HALO FARMS,4018 ROUTE 39,PERRY,14530,WYOMING,926,"4018 ROUTE 39, PERRY, New York, 14530",42.696635,-78.010312
9,NYA00E213,LARGE,PERL FARMS,1545 CENTERLINE ROAD,VARYBURG,14167,WYOMING,1576,"1545 CENTERLINE ROAD, VARYBURG, New York, 14167",42.7378426,-78.3795131
9,NYA00E214,LARGE,BOXLER DAIRY FARMS,2706 RT 20 A,VARYSBURG,14167,WYOMING,4400,"2706 RT 20 A, VARYSBURG, New York, 14167",42.7764498,-78.3626858
9,NYA00E381,LARGE,SUNNY KNOLL FARMS,7312 BURKE HILL ROAD,PERRY,14530,WYOMING,2721,"7312 BURKE HILL ROAD, PERRY, New York, 14530",42.7775534,-77.9995989
,,,,,,,,,,,
